address,categories,city,country,latitude,longitude,name,postalcode,province
Riviera San Nicol 11/a,Hotels,Mableton,US,45.421611,12.376187,Hotel Russo Palace,30126,GA
435 E Avenida Olancha,"Hotels,Hotel",Palm Springs,US,33.802822,-116.54269,Little Paradise Hotel,92264,CA
1055 E Mcnee Road Of Main St,"Corporate Lodging,Hotel & Motel Reservations,Hotels,Accommodations & Lodging,Lodging,Motels,Hotel",Houston,US,29.681084999999996,-95.402996,Comfort Suites,77054,TX
15249 N 59th Ave,Hotels,Glendale,US,33.620773,-112.18566100000001,Thunderbird Executive Inn and Conference Center,85306,AZ
1700 N Livermore Ave,Hotels,Livermore,US,37.698349,-121.77371000000001,Hawthorn Suites By Wyndham Livermore Wine Country,94551,CA
864,Hotels,Binghamton,US,42.130338,-75.90583199999999,Fairfield Inn By Marriott Binghamton,13905,Choconut Center
5820 Walden Rd,"Lodging,Motels,Hotels,Meeting & Event Planning Services",Beaumont,US,30.03867,-94.15933000000001,La Quinta,77707,TX
2700 S Country Club Rd,Hotels,El Reno,US,35.50517,-97.97284,Days Inn El Reno Ok,73036,OK
1118 Government St,"Bed & Breakfasts,Hotels,Hotels & Motels,Lodging,Bed & Breakfast & Inns,Motels",Mobile,US,30.684177000000002,-88.062045,Berney Fly Bed and Breakfast,36604,AL
2131 Kalakaua Ave,"Vacation Rentals,Resorts & Vacation Cottages,Vacation Home Rental,Hotels,Hotels & Motels,Apartments,Apartment Operators,Resorts",Honolulu,US,21.281574,-157.83078899999998,Polynesian Plaza,96815,Hono
Po Box 1327,"Hotels,Hotel,Restaurants",Saranac Lake,US,44.304794,-74.336525,The Point,12983,Lake Colby
111 N Post Oak Ln,Hotels,Houston,US,29.768461,-95.459631,The Houstonian Hotel,77024,Bunker Hill Village
3033 N Division St,Hotels & Motels,Spokane,US,47.686226,-117.411305,Howard Johnson,99207,WA
375 Main St,"Hotels,Hotel",Waterville,US,44.57059,-69.64012,Best Western Plus Waterville Grand Hotel,4901,ME
3100 I 70 Doctor S E,Hotels,Columbia,US,38.961240000000004,-92.28914,Howard Johnson Inn Columbia,65201,Elkhurst
4616 Osage Beach Pkwy,"Motels,Lodging,Hotels,Bed & Breakfast & Inns",Osage Beach,US,38.14468,-92.629776,Osage Village Inn,65065,MO
5719 Fairfield Rd,Hotels,Columbia,US,34.06241,-81.02341,Super 8 Columbia Dwntwn Sc,29203-3305,SC
Carretera Cancun,Hotels,Mont Belvieu,US,20.905720000000002,-86.84786,Azul Beach Hotel By Karisma Gourmet Inclusive,77580,TX
309 S Meridian Ave,"Hotels,Motels,Lodging",Oklahoma City,US,35.463253,-97.60122,Red Roof Inn,73108,OK
3811 N Ocean Blvd,"Lodging,Motels,Hotels",Fort Lauderdale,US,26.174260999999998,-80.09953,Ocean Breeze Motel Apts,33308,Lauderdale By The Sea
2316 Shepherd,Hotels,Branson,US,36.65133,-93.26739,Days Inn Branson / Near The Strip,65616,Bull Creek Village
525 Main Ave N,"Hotel,Lodging,Motels,Hotels",Harmony,US,43.56077,-92.010704,Country Lodge Motel,55939,MN
99 Saint Botolph St,"Hotel and Bed Breakfast Prudential - St. Botolph,Hotels",Boston,US,,,The Inn @ St. Botolph,2116,MA
4963 Southport Supply Rd,Hotels,Southport,US,33.9534,-78.0521,Comfort Suites Southport,28461,Blng Spg Lks
716 21st St,Hotels,Virginia Beach,US,36.84766,-75.98443,Ambassadors Inn and Suites,23451,VA
Europark Fichtenhain A1,Hotels,Terre Haute,US,51.295746,6.5579149999999995,Tryp Dusseldorf Krefeld Hotel,47807,IN
2120 Jameson Pl S W,"Lodges,Hotels,Hotels & Motels,Lodging,Motels",Decatur,US,34.57757,-87.020861,Quality Inn,35603,AL
8 E 12th St,"Bed & Breakfasts,Hotels & Motels,Hotel",Holland,US,42.78621,-86.106875,Centennial Bed and Breakfast,49423,MI
720 E Harbor St,"Hotel,Hotels",Oscoda,US,44.407978,-83.32794,Americinn Lodge Suites Oscoda - Ausable River,48750,MI
760 Langhorne Newtown Rd,"Party & Event Planners,Restaurants,Hotels,Wedding Reception Locations & Services",Langhorne,US,40.189476,-74.92503,Bridgetown Mill House Restaurant Inn,19047,Upper Holland
Avenida Joan Miro 21,Hotels,Clifton,US,39.5639,2.6259799999999998,Gran Melia Victoria,7014,NJ
18980 Upper Belmont Pl,"Conference & Convention Centers,Wholesale Copiers,Conventions,Hotels & Motels,Lodging,Meeting Room,Resorts,Convention Center,Resort",Leesburg,US,39.094056,-77.485577,The National Conference Center,20176,VA
1112 Highway 321 N,"Banquet Rooms,Reception Centers,Lodging,Hotels & Motels,Beach Hotels,Budget Hotels,Business Hotels,Family-Friendly Hotels,Tourist Hotels,Weekend Getaway Hotels,Wedding Sites",Lenoir City,US,35.82745,-84.27773,Holiday Inn Express & Suites Lenoir City (knoxville Area),37771,TN
1223 Radford Blvd,Hotels,Dillon,US,34.43614,-79.36981,Economy Inn,29536-5015,SC
5747 W Glendale Ave,"Hotels,Wedding Reception Locations & Services,Wedding Chapels & Ceremonies,Meeting & Event Planning Services,Banquet Halls & Reception Facilities,Restaurants,Lodging",Glendale,US,33.538585999999995,-112.182594,Glendale Gaslight Inn,85301,AZ
442 Walker Bay Blvd,Hotels,Walker,US,47.09124,-94.57172,Country Inn Walker,56484,Onigum
611 State Route 20,"Hotels,Hotel,Lodging,Bed & Breakfast & Inns,Motels",Winthrop,US,48.470364000000004,-120.17681,Mt Gardner Inn,98862,WA
Piazza Antinori 1,Hotels,Humeston,US,43.772349,11.251337,Hotel De La Ville,50123,IA
309 Highway Z,Hotels,St. Robert,US,37.8228,-92.14079,Econo Lodge St Robert,65584-4649,MO
930 Normandy St,"Resorts & Vacation Cottages,Hotels,Accommodations & Lodging,Inns,Vacation Packages",Houston,US,29.773048,-95.206568,La Quinta Inn-houston,77015,Greens Bayou
225 6th St S E,"Hotels & Motels,Family-Friendly Hotels,Extended Stay,Tourist Hotels,Weekend Getaway Hotels,Travel,Apartment Hotels,Beach Hotels,Budget Hotels,Lodging,Business Hotels",Auburn,US,47.302352,-122.22717,La Quinta Inn & Suites Auburn,98002,WA
926 J St,"Hotels,Hotel",Sacramento,US,38.580276700000006,-121.49380570000001,"The Citizen Hotel, Autograph Collection",95814,CA
400 S Meadow St,"Hotels,Hotels & Motels",Ithaca,US,42.436007000000004,-76.508315,Super 8 Ithaca,14850,NY
6390 Us Highway 93 S,Hotels,Whitefish,US,48.391121000000005,-114.335838,Big Mountain Lodge,59937,MT
7055 Minstrel Way,"Family-Friendly Hotels,Budget Hotels,Hotels & Motels,Business Hotels,Hotel,Tourist Hotels",Columbia,US,39.176128000000006,-76.847257,Springhill Suites Columbia,21046,MD
2909 E Highway 101,"Hotels,Lodging,Motels",Port Angeles,US,48.10485,-123.37406000000001,Sportsmen Motel,98362,Fairholm
2541 Main St,"Bed & Breakfasts,Hotels & Motels,Lodging,Bed & Breakfast & Inns,Motels,B&bs / Inns",Rangeley,US,44.96541,-70.643174,North Country Inn B & B,4970,Lang Twp
1590 Cool Water Ln,Hotels,Barstow,US,34.89095,-117.00283,Days Inn Barstow,92311,CA
1 Wenonah Park Pl,"Conventions Conferences & Trade Shows,Wedding Receptions & Parties,Convention & Meeting Facilities & Services,Hotels",Bay City,US,43.596927,-83.891054,Doubletree By Hilton Hotel Bay City - Riverfront,48708,MI
101 Main St,"Hotels,Lodging",Burlington,US,44.47582,-73.21555,Hilton Garden Inn Burlington Downtown,5401,Burl
1808 S Australian Ave,Hotels,West Palm Beach,US,26.697607,-80.072864,Doubletree By Hilton West Palm Beach Airport,33409,FL
119 Grand Dr,"Hotels,Lodging,Motels,Corporate Lodging",Hattiesburg,US,31.329254,-89.34979,Courtyard Hattiesburg,39401,Barrontown
52 Ashworth Ave,"Hotel,Hotels",Hampton,US,42.91046,-70.81342,Janmere Motel,3842,NH
5341 Acorn Ln,"Motels,Hotels,Lodging,travel",Prescott,US,44.180107,-84.032555,Skidway Lake Motel,48756,MI
San Felipe,"Hotel,Hotels",Pittsville,US,31.02996,-114.8303,El Cortez,21850,MD
607 Main St,"Hotels,Amusement Places & Arcades,Lodging,Banquet Halls & Reception Facilities,Motels,Wedding Reception Locations & Services,Restaurants",Regent,US,46.41884,-102.561844,Enchanted Castle Hotel,58650,ND
855 Pasquinelli Dr,Hotels,Westmont,US,41.81644,-87.955,Extended Stay America - Chicago - Westmont - Oak Brook,60559,IL
3750 Meridian St,"Corporate Housing,Corporate Lodging,Reception Centers,Government Contractors,Hotels,Banquet Halls & Reception Facilities,Family-Friendly Hotels,Hotels & Motels,Budget Hotels,Lodging,Business Hotels,Motels",Bellingham,US,48.781123,-122.48594399999999,Econo Lodge,98225,Fairhaven
222 W Sequoyah Access Rd,"Hotel,Hotels",Soddy Daisy,US,35.250668,-85.18146,Hometown Inn,37379,TN
1210 Us 62/65 North,"Hotel,Hotels",Harrison,US,36.260490000000004,-93.129486,Quality Inn,72601,AR
2500 6th St,Hotels,Brookings,US,44.311409999999995,-96.76286,Days Inn Brookings,57006,SD
2970 Main Ave,"Hotels,Budget Hotels,Hotels & Motels",Durango,US,37.295963,-107.87271399999999,Durango Travelodge,81301,Hermosa
956 S 25th St W,"Hotels & Motels,Hotel",Billings,US,45.7522,-108.58103999999999,Residence Inn Billings,59102-7471,MT
2075 N Us State Nighway 360,Hotels,Grand Prairie,US,32.783764,-97.06028,Best Western Plus Arlington North Hotel and Suites,75050,TX
102 N Alvernon Way,Hotels,Tucson,US,32.223615,-110.90941799999999,La Quinta Inn and Suites Tucson - Reid Park,85711,AZ
2759 Mcdonald Rd,"Extended Stay,Family-Friendly Hotels,Budget Hotels,Hotels & Motels,Business Hotels,Beach Hotels,Lodging,Weekend Getaway Hotels,Tourist Hotels",Tyler,US,32.322578,-95.265008,Staybridge Suites Tyler University Area,75701-6029,TX
1888 Cumberland Falls Hwy,"Hotels,Family-Friendly Hotels,Budget Hotels,Hotels & Motels",Corbin,US,36.920051,-84.12758199999999,Country Inn and Suites By Carlson Corbin,40701,KY
7653 N Owasso Expy,"Hotels,Hotel",Owasso,US,36.265007000000004,-95.846871,Best Western Owasso Inn & Suites,74055-3339,OK
17777 N E Sacramento St,"Government Contractors,Hotels,Accommodations & Lodging,Extended Stay Hotels",Portland,US,45.540782,-122.48038600000001,Extended Stay America,97230,OR
747 Buffalo Creek Rd,"Resorts & Vacation Cottages,Hotels,Homes & Residential Real Estate,Villas,Golf Courses",Lake Lure,US,35.452157,-82.171594,Wyndham Resort At Fairfield Mountains,28746,NC
2725 1st Ave,Hotels,Spearfish,US,44.480470000000004,-103.81389,Quality Inn Spearfish,57783,SD
505 1st Ave N,"hotel,Hotels",Seattle,US,47.62332,-122.35542,Inn At Queen Anne,98109,WA
1287 Highway 78 W,"Hotels,Motels,Hotel & Motel Consultants,Lodging",Jasper,US,33.84603,-87.25914,Super 8,35501,AL
7051 Valley View St,"Hotels,Lodging,Motels",Buena Park,US,33.858124,-118.02875,Motel 6,90620,CA
1317 S Federal Hwy,"Hotels,Lodging,Motels,Travel & Transport",Fort Lauderdale,US,26.10565,-80.136986,Budget Inn South,33316,Port Everglades
2855 Main St,Hotels,Irvine,US,33.67971,-117.83727900000001,Residence Inn By Marriott Irvine John Wayne Airport,92614,CA
65 S E First Ln,"Hotel,Hotels",Lamar,US,37.486855,-94.29853,Blue Top Inn,64759,MO
210 Ludlow St,Hotels,Warren,US,41.83631,-79.16931,Days Inn Warren,16365,PA
895 Highway 10 E,"Motels,Lodging,Hotels",Detroit Lakes,US,46.82358,-95.85734000000001,Budget Host Inn,56501,MN
5000 Central Ave,"Hotel,Hotels",Albuquerque,US,35.08376,-106.69323999999999,Desert Sands Motel,87108,NM
309 W Seneca St,"Hotels,Lodging,Motels",Oswego,US,43.451609999999995,-76.53235,Travelodge,13126,Demster
33 Deadwood St,"Casinos,Hotels,American Restaurants,Wedding Reception Locations & Services,Meeting & Event Planning Services",Deadwood,US,44.376034000000004,-103.7299,Martin Mason Hotel,57732,Roubaix
100 Comfort Inn Ct,"Hotels,O'fallon Hotels",O Fallon,US,38.800071,-90.679098,Comfort Inn and Suites O'fallon,63366,Dardenne Prairie
101 Travel Center Blvd,"Resorts & Vacation Cottages,Hotels,Hotels & Motels,Accommodations & Lodging,Inns,Vacation Packages",Dublin,US,32.487051,-82.938687,La Quinta Inn & Suites Dublin,31021,GA
1433 Camino Del Rio South,Hotels,San Diego,US,32.765811,-117.150442,Sheraton Mission Valley San Diego Hotel,92108,CA
1101 Highway 9 W,"Hotels,Motels",Decorah,US,43.291664000000004,-91.79701999999999,The Bluffs Inn Suites,52101,Burr Oak
3416 Interstate 35 S,"Motels,Hotels,Lodging",Waco,US,31.517883,-97.13759,Astro Motel,76706,TX
811 W Clover Rd,"Hotels & Motels,Family-Friendly Hotels,Budget Hotels,Lodging,Business Hotels,Hotel",Tracy,US,37.761502,-121.43516499999998,Best Western Luxury Inn,95376,CA
1050 Grand Ave,"Hotels & Motels,Hotels,Corporate Lodging,Lodging,Hotels-Apartment,Hotel",Carlsbad,US,33.16385,-117.344319,Extended Stay America San Diego - Carlsbad Village By The Sea,92008,CA
1424 Fisherman Dr,"Hotels,Hotel,Resorts,Travel Tours & Guide Services",Ferriday,US,31.61563,-91.52781,Lakeview Lodge,71334,Concordia Lake
Rr 1 Hwy 11,"Hotel,Hotels",Marion,US,36.86846,-81.41384000000001,Days Inn Marion,24354,Stony Battery
5451 Osage Beach Pkwy,"Motels,Hotels,Lodging",Osage Beach,US,38.12717,-92.66533000000001,Town Country Motel,65065,MO
2600 Us Highway 74a Byp,Hotels,Forest City,US,35.330376,-81.88776,Ramada Inn,28043,NC
Bia Route 7 Garcia Trading Post,Hotels,Chinle,US,36.151195,-109.54715700000001,Holiday Inn Canyon De Chelly,86503,Cottonwood Station
280 S Main St,"Motels,Lodging,Hotels",Wolfeboro,US,43.577892,-71.195984,Lake Motel,3894,Tuftonboro
236 S Jacques St,"Travel & Transport,Hotels & Motels,solrjson:\\Illinois",Arcola,US,39.681672,-88.297515,Arcola Inn,61910,IL
4526 E Belknap St,Hotels,Haltom City,US,32.788714,-97.279915,Haltom Inn,76117,N Richland Hills
572 Riverdale St,"Hotels,Hotel, Conference Room, and Meeting Room",West Springfield,US,42.12138,-72.62555,Candlewood Suites West Springfield,1089,MA
100 Holiday Dr,Hotels,Portland,US,40.439227,-84.99398000000001,Holiday Inn Express & Suites Portland,47371,Bellefountain
1435 Cornell Ave,"Hotels & Motels,Lodging",Lovelock,US,40.185058000000005,-118.47023600000001,Royal Inn,89419,Oreana
55 Ok St,"Hotels,Lodging,Hotel,Motels",Bisbee,US,31.443132000000002,-109.91349,Eldorado Suites Hotel,85603,Copper Queen
1114 Blair St,Hotels & Motels,Silverton,US,37.810443,-107.66416299999999,Bent Elbow,81433,CO
Hurbanova 44,"Hotel,Hotels",Pasadena,US,48.900240000000004,18.051859,Penzion Accom,91101,CA
13600 N W 2nd St,Hotels,Fort Lauderdale,US,26.123981,-80.331315,La Quinta Inn and Suites Sunrise,33325,Plantation
1850 Richland Ave W,"Hotels,Hotels & Motels",Aiken,US,33.565239,-81.745577,Knights Inn Aiken,29801,SC
2918 Stevens St,"Resorts & Vacation Cottages,Air Sightseeing Tours,Hotels,Bicycle Tours,Tours & Charters",Madison,US,43.072693,-89.439605,Inroads Ireland Tours,53705,WI
1776 Mansfield Rd,"Travel,Bed & Breakfasts,Hotels & Motels,Lodging,B&bs / Inns",Georgetown,US,33.424242,-79.274345,Mansfield Plantation Inc,29440,SC
323 Reservation Rd,Hotels & Motels,Marina,US,36.683665000000005,-121.791551,Ramada,93933,CA
732 E 82nd Ave,Hotels,Merrillville,US,41.469446000000005,-87.329978,Deluxe Inn Merrillville,46410,IN
1807 Golden Mile Hwy,Hotels,Pittsburgh,US,40.4461,-79.7139,Super 8 Pittsburgh/monroeville,15239,Pitt
1532 S Highway 27,"Hotels,Lodging,Motels",Somerset,US,37.072174,-84.61848,Motel 6,42501,Elihu
16101 Crain Hwy,"Motels,Hotels,Lodging",Brandywine,US,38.668929999999996,-76.87629,Cadillac Motel,20613,MD
40 Ashworth Ave,"Hotel,Hotels",Hampton,US,42.911365999999994,-70.81291,Mainsail Motel & Cottages,3842,NH
200 Eastlight Ct,"Travel & Transport,Hotels & Motels,Hotel",East Peoria,US,40.67221051,-89.57642544,Fairfield Inn & Suites Peoria East,61611,Peoria
34 Fishermans Way,"Hotels,Lodging,Motels,Meeting & Event Planning Services",Jupiter,US,26.934633,-80.08641,La Quinta,33477,FL
200 Creekside Dr,"Wedding Sites,Hotels,Hotels & Motels,Meeting Facilities",Canyonville,US,42.9414,-123.28993999999999,Holiday Inn Express and Suites Canyonville,97417,OR
8040 Oliver Rd,"Hotel,Hotels",Erie,US,42.046699,-80.08042900000001,Solstice,16509,PA
Drepanon,Hotels,Glen Burnie,US,37.531556,22.890106,The Grove Seaside Hotel,21060,MD
480 King St,"Hotels,Hotel",Alexandria,US,38.80474,-77.04455,"The Alexandrian, Autograph Collection",22314,VA
225 N Wabash Ave,"Hotels,Wedding Chapels & Ceremonies,Lodging,Conference Centers,Restaurants,Corporate Lodging",Chicago,US,41.886337,-87.62626,"Hotel Monaco Chicago, A Kimpton Hotel",60601,IL
3 5920 Kuhio Hwy,Hotels,Kapaa,US,22.042716,-159.33808,Hilton Garden Inn Kauai Wailua Bay,96746,HI
4068 Stansell Ct,"Hotels,Hotel",Memphis,US,35.03565,-89.79881,Holiday Inn Express Hotel and Suites Memphis Southwind,38125,Mphs
457 Mountain Village Blvd,Hotels,Telluride,US,37.933273,-107.85086499999998,Mountain Lodge At Telluride - A Noble House Resort,81435,Pandora
226 Carondelet St,Hotels,New Orleans,US,29.952146000000003,-90.071143,Hampton Inn New Orleans - Downtown,70130,LA
3614 W Garriott Rd,Hotels,Enid,US,36.39085,-97.92181,Baymont Inn and Suites Enid,73703,OK
9800 Bonita Beach Rd,Hotels,Bonita Springs,US,26.331369,-81.787918,Comfort Inn,34135,FL
12085 Delaware St,Hotels,Denver,US,39.915085999999995,-104.992635,Quality Inn & Suites,80234,Westminster
2597 Holiday Rd,Hotels,Coralville,US,41.70064,-91.60700000000001,Americinn Coralville,52241,IA
1251 E 1st Ave,"Hotel,Hotels",Shakopee,US,44.80142,-93.50884,Travelodge Shakopee,55379,MN
1700 Skibo Rd,Hotels,Fayetteville,US,35.07617,-78.96096,Hampton Inn Fayetteville Fort Bragg,28303,Ponderosa
4785 Saint Leonard Rd,"Motels,Bed & Breakfast & Inns,Lodging,Hotels & Motels",Saint Leonard,US,38.47525,-76.50707,Cliff's Motor Inn,20685,MD
4691 Castleton Way,Hotels,Castle Rock,US,39.408528999999994,-104.866775,Days Inn & Suites Castle Rock,80104,CO
15490 S Rogers Rd,"Hotels & Motels,Family-Friendly Hotels,Extended Stay,Tourist Hotels,Weekend Getaway Hotels,Lodging",Olathe,US,38.847727,-94.824007,Candlewood Suites Olathe,66062-3497,KS
2505 Main St,"Hotels & Motels,Lodging,Motels",Alamosa,US,37.47547,-105.89536000000001,Super 8 Alamosa,81101,Carmel
5610 Vineland Rd,Hotels,Orlando,US,28.482007,-81.455546,Extended Stay America - Orlando Theme Parks - Vineland Rd.,32819,FL
200 Second St,"Hotel,Hotels",Saint Mary,US,37.8827,-89.953575,White Cliff Manor Bed and Breakfast,63673,MO
Av Juarez 76 Colonel Centro,Hotels,Bristol,US,19.43517,-99.14671899999999,Fiesta Inn Centro Historico,6010,CT
200 E State Road 45/46 Bypass,"Hotel,Hotels",Bloomington,US,39.18581,-86.53319499999999,Days Inn Bloomington,47401,IN
105 Melcon Ln,"Hotels & Motels,Lodging,Hotels And Motels",London,US,37.145106,-84.108375,Econo Lodge,40741,Tuttle
4735 Helen Hauser Blvd,"Resorts & Vacation Cottages,Hotels,Hotels & Motels,Accommodations & Lodging,Vacation Packages,E-Commerce",Titusville,US,28.552433,-80.853663,Fairfield Inn/suites-marriott,32780,FL
Jalan Mh Thamrin,Hotels,Staten Island,US,-6.195424,106.823673,Mandarin Oriental Jakarta,10310,NY
2707 Veterans Ave,"Travel & Transport,Hotels,Hotels & Motels",Vandalia,US,38.97034343,-89.12880845,Ramada Vandalia,62471,Pittsburg
1755 Idaho St,Hotels,Elko,US,40.843764,-115.75101299999999,Super 8 Elko Nv,89801,North Fork
S Via Nullo 5/r,Hotels,San Jose,US,37.52297,15.060435,Hotel Borgo Verde,95125,CA
37611 Us Highway 19 N,Hotels,Palm Harbor,US,28.115090999999996,-82.739762,Vista Hotel On Lake Tarpon,34684,FL
Route De La Corniche,Hotels,Manassas,US,41.679122,8.914842,Miramar Boutique Hotel,20110,VA
920 N Rampart St,"Hotel,Hotels",New Orleans,US,29.962453999999997,-90.06636,Best Western Plus French Quarter Landmark Hotel,70116-3011,LA
222 3rd Ave S,Hotels,Windom,US,43.856357,-95.11624300000001,Red Carpet Inn,56101,MN
2717 Village Ln,Hotels,Bossier City,US,32.52313,-93.70201,Quality Inn and Suites,71112,LA
1000 Mechem Dr,"Hotels,Condominium Operators,Lodging,Resorts,Bed & Breakfast & Inns,Motels,Real Estate Rentals",Ruidoso,US,33.351721000000005,-105.67443200000001,Village Lodge,88345,Hollywood
200 Tuttle Creek Blvd,Hotels,Manhattan,US,39.18027,-96.55681,Super 8 Manhattan Ks,66502,KS
1100 N Mississippi Ave,"Bed & Breakfasts,Hotels,Inns,E-Commerce",Ada,US,34.786299,-96.66980799999999,Raintree Inn,74820,Pontotoc
2827 State Route 12b,"Hotel,Hotels",Deansboro,US,43.000209999999996,-75.42649,Garden Bed and Breakfast,13328,NY
485 Douglas Ave,"Hotel,Hotels",Providence,US,41.84353,-71.42781,Alpine Motel,2908,RI
200 S Coombs St,Hotels,Napa,US,38.283328999999995,-122.288533,Wine Valley Lodge,94559,CA
11617 Research Blvd,Hotels,Austin,US,30.416106,-97.74427800000001,Hilton Garden Inn Austin Nw - Arboretum,78759,TX
614 S W 11th Ave,"Corporate Lodging,Banquet Halls & Reception Facilities,Hotels,Hotels & Motels,Lodging,Business Hotels,Motels,Boutique Hotels",Portland,US,45.52085,-122.6828,The Governor Hotel,97205,OR
118 S Clinton St,"Railroads,Hotels,Rail Tours,Tours",Chicago,US,41.880368,-87.6413,Pullman Rail Journeys,60661,IL
4740 Highway 68,"Hotel,Hotels",Madisonville,US,35.50645,-84.36962,Motor Inns of America,37354,TN
580 S Route 3 (daniel Webster Highway) Po Box 99,"Hotels,Hotel,Lodging,Motels",Twin Mountain,US,44.266968,-71.56098,Profile Deluxe Motel,3595,NH
232 E White Horse Pike,Hotels,Absecon,US,39.447342,-74.530457,American Star Inn and Suites Atlantic City,8205,Galloway Township
454 Jenness Pond Rd,"Hotel,Hotels",Northwood,US,43.262496999999996,-71.24301,Meadow Farm Bed and Breakfast,3261,NH
139 Days Inn Dr,"Hotels,Lodging,Hotel,Motels",Kuttawa,US,37.073741999999996,-88.12569,Days Inn Kuttawa,42055,KY
5 Route De L'ile Vincent,Hotels,Lake Worth,US,45.054526,-0.658295,Hotel Relais De Margaux Golf and Spa,33460,FL
7615 Jones Maltsberger Rd,Hotels,San Antonio,US,29.50357,-98.48179,Hyatt Place San Antonio Airport - Quarry Market,78216,TX
380 W 7200 S,Hotels,Midvale,US,40.62079,-111.90088899999999,Discovery Inn,84047,Cushing
35 W Jackson St,"Restaurants,Meeting & Event Planning Services,Hotels,Hotel,Lodging,Hotel and Brewery,Motels",Millersburg,US,40.554265,-81.91773,Hotel Millersburg,44654,Bunker Hill
2625 Constitution Dr,Hotels,Livermore,US,37.701428,-121.814181,Comfort Inn Livermore,94551,CA
N Corso Allamano 153,Hotels,New York,US,45.057607,7.558972,Tulip Inn Turin West,10098,NY
Avda Alcalde Pere Molaskm 2,Hotels,Stone Creek,US,41.08352,1.153677,Hotel Portaventura,43840,OH
27 W 72nd St,Hotels,New York,US,,,Hotel Olcott,10023,Nyc
110 Vanderbilt Motor Pkwy,Hotels,Hauppauge,US,40.806018,-73.26543000000001,Radisson Hotel Hauppauge-long Island,11788,NY
2008 S Hawthorne Rd,Hotels & Motels,Winston Salem,US,36.078959999999995,-80.29879,Quality Inn & Suites Hanes Mall,27103,Hanes
16530 Northcross Dr,Hotels,Huntersville,US,35.44025,-80.87268,Candlewood Suites Huntersville,28078,Hicks Crossroads
10805 Turner Blvd,"Hotels,Hotels & Motels",Longmont,US,40.158007,-104.98170400000001,Super 8 Longmont / Del Camino,80504,Niwot
101 Main St,"Hotel,Hotels",Valentine,US,42.871143,-100.55091,Comfort Inn,69201,NE
2512 W Lincolnway,Hotels,Cheyenne,US,41.11915,-104.84949,Americas Best Value Inn,82001,WY
835 S Chestatee St,"Wedding Sites,Hotels,Hotels & Motels,Meeting Facilities",Dahlonega,US,34.52495,-83.97584,Holiday Inn Express Dahlonega,30533,GA
506 Stockbridge Rd,"Motels,Corporate Lodging,Hotels,Lodging,Resorts",Great Barrington,US,42.238323,-73.33482,Briarcliff,1230,N Egremont
1776 Grant St,Hotels,Denver,US,39.744501,-104.98356799999999,Warwick Denver,80203,CO
411 Lincoln St,"Hotels,Lodging,Motels",American Falls,US,42.776073,-112.85909,Falls Motel,83211,Heglar
50 N E Catawba Rd,Hotels,Port Clinton,US,41.52469,-82.85883000000001,Holiday Inn Express Hotel and Stes Port Clinton-catawba Island,43452,Middle Bass
126 N Ocean Blvd,Hotels,Delray Beach,US,26.464654,-80.058094,Berkshire By The Sea A Vri Resort,33483,FL
250 Odlin Rd,Hotels,Bangor,US,44.791314,-68.810204,Days Inn Bangor Airport,4401,Veazie
485 Hamilton St,"Lodging,Motels,Hotels",Geneva,US,42.8566,-77.00576,Days Inn Geneva,14456,NY
Via Beato Angelico 35,Hotels,Ames,US,43.801897,11.298293,Fh Hotel Villa Fiesole,50014,IA
101 Meadow Rdg,"Hotels,Motels,Lodges,Conventions Conferences & Trade Shows,Convention & Meeting Facilities & Services,Hotel",Elk City,US,35.386404999999996,-99.401614,Clarion Inn,73644,OK
1835 Columbia St,Hotels,San Diego,US,32.724488,-117.167651,Porto Vista Hotel,92101,CA
4507 Brooklyn Ave N E,"Hotel,fun hotels in seattle",Seattle,US,47.661429999999996,-122.31428999999999,Hotel Deca - A Noble House Hotel,98105,WA
15750 Highway Bb,"Hotels,Hotel,Lodging,Resorts",Licking,US,37.461372,-91.98765999999999,Boiling Springs Resort Canoe Rental,65542,MO
663 E Cloverland Dr,"Hotels,Hotels & Motels,Lodging,Motels,Ironwood, MI",Ironwood,US,46.463291,-90.161739,Advance Motel,49938,MI
10 Calle Y Avenida Circunvalacion,"Hotel,Hotels",Annapolis,US,15.499006,-88.03789499999999,Hilton Princess San Pedro Sula,21411,MD
2645 N W Inlet Ave,"Hotels,Lodging,Hotel,Motels",Lincoln City,US,44.98465469,-124.0137872,Pelican Shores Inn,97367,OR
45400 Park Ave,Hotels,Utica,US,42.628861,-83.010776,Hyatt Place Utica,48315,MI
Calle Miami 5,Hotels,Abbeville,US,36.610974,-4.503823000000001,Hotel Roc Lago Rojo,29620,SC
Ebusuud Cad No2,Hotels,Naples,US,41.011854,28.978276,Amisos Hotel,34110,FL
E7331 Red Banks Rd,"Motels,Lodging,Hotels",Fremont,US,44.27578,-88.8607,Red Banks Motel,54940,WI
7815 Coley Davis Rd,"Hotels,Lodging,Corporate Lodging",Nashville,US,36.078509999999994,-86.95515999999999,Hampton Inn,37221,TN
737 W Washington Blvd,Hotels,Marina Del Rey,US,33.987299,-118.45369,The Kinney - Venice Beach,90292,CA
1000 Hwy 19 S,"Hotels,Lodging,Motels,Bed & Breakfast & Inns,Vacation Homes Rentals & Sales",Bryson City,US,35.41966,-83.46169,Scenic View Motel,28713,Ela
1 Main St,Hotels,Las Vegas,US,36.171617,-115.146375,Plaza Hotel and Casino - Las Vegas,89101,NV
34560 Bob Hope Dr,Retirement Apartments & Hotels,Rancho Mirage,US,33.798553000000005,-116.40588000000001,Monarch of Rancho Mirag,92270,CA
302 S Main St,"Hotels,Hotel,Lodging,Motels,B&bs / Inns",Seiling,US,36.144417,-98.9245,Seiling Motel,73663,OK
119 Pinnacle Dr,Hotels,Johnson City,US,36.37389,-82.42733,Quality Inn Johnson City,37615,TN
165 Saint Emanuel St,"Hotels,Bed & Breakfasts,Hotels & Motels,Lodging,Bed & Breakfast & Inns,Motels",Mobile,US,30.688109999999998,-88.04079,Fort Conde Inn,36602,AL
8541 S Hampton Rd,"Hotels,Accommodations & Lodging,Motels",Dallas,US,32.643793,-96.857314,Super 8 Dallas South,75232,TX
2007 N Expy,Hotels,Griffin,US,33.28714,-84.29196,Baymont Inn & Suites Griffin,30223,GA
4021 Union Deposit Rd,Hotels,Harrisburg,US,40.277722999999995,-76.82110300000001,Holiday Inn Express - Harrisburg East,17109,PA
19 3948 Old Volcano Rd,"Gift Shops,Restaurants,Hotels,Lodging,Bed & Breakfast & Inns",Volcano,US,19.426996,-155.237305,Kilauea Lodge Restaurant,96785,HI
5 Village Cir,"Hotel and Resort,Hotels",Roanoke,US,32.979372999999995,-97.16851199999999,Dallas/fort Worth Marriott Solana,76262,Trophy Club
345 Chestnut St,"Hotel,Hotels",Morgantown,US,39.630993,-79.956245,The Chestnut Boutique Hotel,26505,Star City
703 S Negley Ave,"Bed & Breakfasts,Weekend Getaway Hotels,Hotels & Motels,Hotels",Pittsburgh,US,40.453283,-79.931668,The Inn On Negley,15232,Pitt
2100 N Ocean Blvd,"Hotels,Motels,Resorts",North Myrtle Beach,US,33.82734,-78.645195,Wyndham Vacation Resorts Towers On The Grove,29582,Cherry Grove
905 N Kentucky St,Hotels,Kingston,US,35.87883,-84.51029,Super 8 Kingston,37763,TN
1101 N 3rd St,"Restaurants,Hotels,Hotels & Motels,Lodging,Motels",Mccall,US,44.910785,-116.097702,Hotel Mc Call,83638,Lardo
850 Lucy Dr,"Hotels,Hotels & Motels",Worthington,US,43.635653000000005,-95.621864,Super 8 Worthington Minnesota,56187,MN
5479 Westmoreland Plz,Hotels,Douglasville,US,33.751459999999994,-84.71639499999999,Quality Inn Near Six Flags,30134,GA
1700 Eighth St N W,"Hotel,Hotels",Austin,US,43.681877,-92.98395,Americinn Lodge Suites Austin,55912,Andyville
305 N 27th St,"Wedding Receptions & Parties,Convention & Meeting Facilities & Services,Business Hotels,Lodging,Cottages,Luxury Hotels,Conventions Conferences & Trade Shows,Hotels,Family-Friendly Hotels,Budget Hotels,Hotels & Motels,Beach Hotels,Resorts,Tourist Hotels,Weekend Getaway Hotels",Spearfish,US,44.478751,-103.814575,Holiday Inn Spearfish-convention Center,57783,SD
1512 Central Blvd,"Guide Service,Hotels,Resorts",Bull Shoals,US,36.382416,-92.590965,Mar Mar Resort Tackle,72619,AR
301 Reserve Ave,"Luxury Hotels,Restaurants,Hotels & Motels,Lodging,Grill Restaurants,Meeting Facilities",Roanoke,US,37.256149,-79.947005,Cambria Hotel & Suites,24016,VA
24320 Rogers Clark Blvd,Hotels,Ruther Glen,US,37.93338,-77.47601,Days Inn Ruther Glen Kings Dominion Area,22546,VA
Predio Paraiso Escondido S/n,Hotels,Virginia Beach,US,22.875315,-109.93068799999999,Pueblo Bonito Sunset Beach Resort & Spa - All Inclusive,23450,VA
741 E Washington St,"Cocktail Lounges,Restaurants,Hotels,Casinos,Lodging,Hotels Motels,Motels",Charles Town,US,39.293040000000005,-77.850866,Turf Motel,25414,WV
108 N Yellowstone Ave,"Hotels & Motels,RV Parks",Moorcroft,US,44.264012,-104.95052,Rangeland Court Motel & Rv,82721,Pine Haven
2030 Formosa Rd,Hotels,Troy,US,38.734557,-89.913938,Red Roof Inn St Louis - Troy,62294,IL
33 Peck,"Hotels,Accommodations & Lodging,Motels",New York,US,40.708059999999996,-74.00145,Best Western Plus-seaport Inn,10038,Nyc
3917 Ridgemont Dr,Hotels,Abilene,US,32.40399,-99.76546,Hampton Inn Abilene,79606,TX
700 Ute Ave,"Travel and Tourism,Wedding Guests,Wedding Workouts,Hotels and Lodging,Wedding Guest Accommodations,Condominiums and Townhouses",Aspen,US,39.1859,-106.81711999999999,Aspen Alps,81611,CO
3250 Northview Dr,Hotels,Elkhart,US,41.73513,-85.97723,Country Inn and Suites By Carlson,46514,IN
202 Main St,"Bed & Breakfasts,Hotels & Motels",Cooperstown,US,42.701214,-74.931078,Main Street Bed & Breakfast,13326,NY
2906 Pleasant Valley Blvd,"Hotels & Motels,Lodging,Budget Hotels,Business Hotels,Family-Friendly Hotels",Altoona,US,40.49514,-78.395267,Econo Lodge,16602,PA
135 Route 28,Hotels,West Yarmouth,US,41.657447,-70.261804,Tidewater Inn,2673,Yarmouth
740 Broadway St,Hotels,Chico,US,39.72602,-121.83713,Americas Best Value Inn,95928,Chapmantown
1562 Sheridan Ave,"Motels,Hotels,Lodging",Cody,US,44.52608,-109.05776999999999,Uptown Motel,82414,WY
Via Pirandello 81,Hotels,Medina,US,37.850643,15.293988,Villa Carlotta,98039,WA
7550 W State Road 84,Hotels,Fort Lauderdale,US,26.096485,-80.246321,Extended Stay America - Fort Lauderdale - Davie,33317,Plantation
14 Silver Run Ln,"Cabins,Resorts & Vacation Cottages,Hotels,Hotels & Motels,Cabin Cottage & Chalet Rental,Resorts,Motels,Cottages & Cabins",Yellville,US,36.105263,-92.610975,Silver Run Cabins,72687,AR
4630 Chambers Rd,"Hotels & Motels,Family-Friendly Hotels,Travel Agencies,Tourist Hotels,Budget Hotels,Lodging,Business Hotels",Macon,US,32.805482,-83.722511,Quality Inn,31206,GA
14585 Duval Rd,"Hotels,Hotel",Jacksonville,US,30.479833000000003,-81.648827,Jacksonville Plaza Hotel and Suites,32218,FL
7070 Poe Ave,Hotels,Dayton,US,39.849845,-84.189419,Hawthorn Suites Dayton North,45414,OH
7380 Stage Road Hwy 64,Hotels,Memphis,US,35.20486,-89.8086,Suburban Extended Stay of Memphis Bartlett,38133,Mphs
2261 Killebrew Dr,Hotels,Minneapolis,US,44.85201,-93.23993,Homewood Suites - Mall of America,55425,MN
361 17TH Saint Atlantic Sta,"Hotels & Motels,Tourist Hotels,Boutique Hotels,restaurants",Atlanta,US,33.79156,-84.398014,Twelve Hotels & Residences,30363,GA
1515 Dallas St,"Wedding Receptions & Parties,Conventions Conferences & Trade Shows,Convention & Meeting Facilities & Services,Hotel, Conference Room, and Meeting Room Downtown Houston,Hotels,Conference Room,Hotel,Meeting Room",Houston,US,29.752847999999997,-95.361488,Embassy Suites By Hilton Houston Downtown,77010,TX
121 Big Lake Rd,"Hotel,Hotels",Cloquet,US,46.713882,-92.46476,Super 8 Cloquet,55720,Scanlon
653 Clark Rd,Hotels,Rockford,US,42.27388,-88.9672,Extended Stay America - Rockford - I-90,61107,IL
4951 Eisenhower Pkwy,Hotels,Macon,US,32.812740000000005,-83.71964,Red Rest Inn,31206,GA
139 N E Goodfellow St,"Travel and Tourism,Hotels,Motels",Ontario,US,44.025859999999994,-116.9435,Colonial Inns of Ontario,97914,Claude
Paseo De Garay 5,"Hotel,Hotels",Norcross,US,37.981858,-1.124223,Hotel Silken Siete Coronas,30003,GA
1071 E El Camino Real,Hotels,Sunnyvale,US,37.352307,-122.00324199999999,Cherry Orchard Inn,94087,CA
Johnsallee 63 67,Hotels,Ashburn,US,53.566244999999995,9.988144,Hotel Vorbach,20146,VA
7063 Carroll Ave,"Travel and Tourism,Hotels,Hotel,Lodging,Resorts,Bed & Breakfast & Inns,Motels",Takoma Park,US,38.97528,-77.00990999999999,Eden Park Guest House,20912,MD
101 Lakeway Dr,Hotels,Austin,US,30.373974,-97.98694,Lakeway Resort & Spa,78734,Lakeway
1803 Lakeside St,Hotels,Amarillo,US,35.194703000000004,-101.74220799999999,Knights Inn Amarillo Airport,79118,Timbercrk Cyn
4207 Franklin Commons Ct,"Hotels,Hotel",Franklin,US,35.911253,-86.822972,La Quinta Inn and Suites Nashville Franklin,37064,Peytonsville
186 Ashworth Ave,"Hotel,Hotels",Hampton,US,42.902237,-70.81505,Blue Jay Motel,3842,NH
2095 Lombard St,Hotels,San Francisco,US,37.799801,-122.436031,Chelsea Inn,94123,CA
1201 Torgerson Dr,"Lodging,Business Hotels,Cottages,Wedding Reception Locations & Services,Luxury Hotels,Corporate Lodging,Hotels,Banquet Halls & Reception Facilities,Family-Friendly Hotels,Hotels & Motels,Budget Hotels,Beach Hotels,Resorts,Tourist Hotels,Weekend Getaway Hotels,Motels",Fairmont,US,43.676471,-94.446189,Super 8 Motel Fairmont,56031,MN
701 E Aultman St,"Hotels & Motels,B&bs / Inns",Ely,US,39.24836,-114.89076000000001,Great Basin Inn,89301,Currie
6560 Loisdale Ct,Hotels,Springfield,US,38.7756,-77.17851,Comfort Inn - Springfield,22150,VA
19 Sombrero Blvd,Hotels,Marathon,US,24.711823000000003,-81.08055,Sombrero Resort and Marina,33050,Grassy Key
2045 Seventh St S,"Hotel,Hotels",Clanton,US,32.802624,-86.5871,Key West Inn - Clanton,35045,AL
1100 Ingram Blvd/i 40,Hotels,West Memphis,US,35.160222999999995,-90.15817,Days Inn West Memphis,72301,AR
4901 Greenwood Rd,"Bed & Breakfast & Inns,Hotels,Motels,Lodging",Shreveport,US,32.47119,-93.82771,Plantation Inn,71109,Flournoy
4424 Cleburne Blvd,"Hotels,Hotels & Motels",Dublin,US,37.07262,-80.69679000000001,Quality Inn,24084,VA
5466 W 86th St,"Hotels,Lodging,Motels,Resorts,resort",Indianapolis,US,39.910885,-86.25733000000001,Sybaris Pool Suites,46268,IN
Berliner Strasse 111,Hotels,Northbrook,US,50.106528999999995,8.760921000000002,Sheraton Offenbach Hotel,60065,IL
3100 Regency Pkwy,Hotels,Cary,US,35.73348,-78.78996,Extended Stay America - Raleigh - Cary - Regency Parkway S,27511,NC
2727 Watson Blvd,Hotels,Warner Robins,US,32.61835,-83.67237,Suburban Extended Stay Warner Robins,31093,GA
280 Power Dr,"Hotels,Family-Friendly Hotels,Budget Hotels,Hotels & Motels,Business Hotels,Tourist Hotels",Batesville,US,34.30856,-89.922673,Jvd Hotels,38606,MS
616 Highway 70,"Motels,Hotels",Ruidoso,US,33.312737,-105.63678,Arrowhead Motel and Rv Park,88345,Hollywood
1710 S Dirck Dr,"Hotels,Meeting & Event Planning Services,Convention Services & Facilities",Freeport,US,42.27901,-89.63387,Country Inns Suites,61032,IL
1003 Tahoe Boulevard (sr 28),Hotels,Incline Village,US,39.244493,-119.93643700000001,Parkside Inn At Incline,89451,NV
11400 Common Oaks Dr,Hotels,Raleigh,US,35.950359999999996,-78.54278000000001,Holiday Inn Express Hotel and Suites Raleigh-wakefield,27614,NC
1320 Harrisburg Pike,Hotels,Lancaster,US,40.05696,-76.33129,Americas Best Value Inn,17603,Manor Ridge
40 Apollonos St,Hotels,Ramey,US,37.812115000000006,23.774569,Arion,16671,PA
106 W 11th St,"Hotels,Lodging,Motels",Rockport,US,,,Motel 6,78382,Estes
Via Gb Vico 142,Hotels,Lake Elmo,US,43.956540999999994,10.195617,Una Hotel Forte Dei Marmi,55042,MN
503 Spearfish Canyon Rd,"Motels,Lodging,Hotels",Spearfish,US,44.476166,-103.84841,Canyon Gate Motel,57783,SD
2700 Green Oaks Rd,Hotels,Fort Worth,US,32.73509,-97.43459,Hampton Inn & Suites Fort Worth-west-i-30,76116,TX
311 2nd St,Hotels,Santa Cruz,US,36.965324,-122.02146499999999,Fireside Inn Santa Cruz,95060,Paradise Park
222 Sansome St,Hotels,San Francisco,US,37.792336,-122.40091000000001,Mandarin Oriental Hotel Group,94104,CA
2121 P St N W,"Hotels,bar drinks,cakes desserts,food catering",Washington,US,,,"Palomar Washington Dc, A Kimpton Hotel",20037,DC
19451 Gulf Blvd,Hotels,Indian Rocks Beach,US,27.850446999999996,-82.844245,Bay Shores Yachttennisclub 514 2 Br Condo By Redawning,33785,Indian Rk Bch
George Washington Avenue 500,Hotels,New York,US,18.457572,-69.910046,Hilton Santo Domingo,10104,NY
85 Ocean Rd,"Hotels,Hotels & Motels,Lodging,Bed & Breakfast & Inns,Motels",Narragansett,US,41.428084000000005,-71.45649499999999,Atlantic House,2882,Galilee
211/1 Moo 4,Hotels,Eden,US,9.486392,100.065182,Samui Cliff View Resort & Spa,84310,UT
600 Tracy Trl,Hotels,Crystal Lake,US,42.228017,-88.29727199999999,Country Inn & Suites By Carlson,60014,Lakewood
500 W 120 S,Hotels,Coalville,US,40.91089,-111.40338999999999,Best Western Holiday Hills,84017,Pine Cliff
12920 Aldrich Ave S,Hotels,Burnsville,US,44.769267,-93.291074,Norwood Inn and Suites,55337,MN
95 Route 17k,Hotels,Newburgh,US,41.505388,-74.073291,Howard Johnson Inn - Newburgh,12550-5009,NY
2830 S Iowa Ave,"Reception Centers,Wedding Sites,Banquet Rooms,Family-Friendly Hotels,Budget Hotels,Hotels & Motels,Business Hotels,Lodging,Beach Hotels,Resorts,Weekend Getaway Hotels,Tourist Hotels",Colton,US,34.020339,-117.338229,Holiday Inn Express Colton-riverside North,92324,CA
150 Cracker Barrel Dr,"Travel,Bed & Breakfasts,Extended Stay,Wine Country Hotels,Business Hotels,Lodging,Hotels,Family-Friendly Hotels,Hotels & Motels,Budget Hotels,Beach Hotels,Apartment Hotels,Weekend Getaway Hotels,Tourist Hotels,Boutique Hotels",Calhoun,US,34.470290000000006,-84.91438000000001,La Quinta Inn Calhoun,30701,GA
5200 Fashion Square Blvd,Hotels,Saginaw,US,43.48418,-83.96907,Fairfield Inn Saginaw,48604,MI
Via Villa Rosato 20 22,Hotels,Palermo,US,38.160424,13.331845999999999,Hotel Casena Dei Colli,90146,PA
1453 Mack Smith Rd,"Hotel,Hotels",Chattanooga,US,34.991222,-85.20835,Fairfield Inn Suites Chattanooga South/east Ridge,37412,TN
5460 N River Rd,"Bars & Clubs,Restaurants,Hotels & Motels,Grill Restaurants",Des Plaines,US,,,Ubaa Old Crawford Inn,60018,IL
4001 W Broadway,"Travel and Tourism,Wedding Guests,Hotels,Wedding Guest Accommodations,Hotel,Resorts,Motels,Hotels and Lodging",Sedalia,US,38.712740000000004,-93.27975500000001,Holiday Inn Express Hotel Suites Sedalia,65301,Georgetown
6377 Court Street Rd,"Hotels And Motels,Hotel",East Syracuse,US,43.09081892,-76.07916895,Hampton Inn & Suites Syracuse/carrier Circle,13057,NY
3550 Gateway St,Hotels,Springfield,US,44.085879999999996,-123.04228,Quality Inn and Suites Eugene-springfield,97477,Spfld
4090 Stansell Ct,"Hotels,Lodging,Hotel",Memphis,US,35.03692,-89.7989,Four Points By Sheraton Memphis Southwind,38125,Mphs
2120 Claude Bailey Pkwy,"Travel & Transport,Hotels & Motels",Princeton,US,41.368016,-89.45696600000001,Americinn Lodge Suites Princeton,61356,IL
1312 Beaverton Valley Rd,"Hotels & Motels,B&bs / Inns",Friday Harbor,US,48.540152,-123.03853899999999,Juniper Lane Guest House,98250,WA
517 S 1st St,"Travel & Leisure,Hotels,Hotel,Burwell,Burwell Hotels and Motels,Hotels and Motels",Burwell,US,41.781994,-99.12564,Bosselmans Pump Pantry Motel,68823-5265,NE
2900 S Casino Dr,Hotels,Laughlin,US,35.144281,-114.57749199999999,Harrah's Laughlin Hotel and Casino,89029,NV
1020 S E Blue Pkwy,Hotels,Lees Summit,US,38.90314,-94.3571,Americas Best Value Inn and Suites,64063,Lk Lotawana
4200 Augusta Rd,"Motels,Hotels,Lodging,Bed & Breakfast & Inns",Savannah,US,32.102990000000005,-81.1486,Masters Inn,31408,GA
Campo Barozzi,Hotels,Cave Spring,US,45.431943,12.335510000000001,The Westin Europa and Regina,30124,GA
5791 I 49 Service Rd S,"Hotel,Hotels",Opelousas,US,30.515139,-92.071014,Super 8 Opelousas,70570,LA
4965 S Sunland Gin Rd,"Hotels,Lodging,Motels",Eloy,US,32.8064,-111.67105,Motel 6,85131,AZ
131 E Mccullough Dr,Hotels,Charlotte,US,35.30077,-80.7538,Country Inn and Suites By Carlson Charlotte University Place,28262,NC
61 Casey Jones Ln,"Hotels & Motels,Lodging",Jackson,US,35.661729,-88.85688,Comfort Suites,38305,TN
15902 S Western Ave,Hotels,Gardena,US,33.886224,-118.30914299999999,Gardena Terrace Inn,90247,CA
15321 Vantage Pkwy E,Hotels,Houston,US,29.940256,-95.362277,Quality Suites Intercontinental Airport West,77032,TX
3582 White Mountain Hwy,"Hotels & Motels,Motels,Lodging",North Conway,US,44.074067,-71.141015,1785 Inn,3860,N Conway
5317 Pratt Rd,Hotels,Knoxville,US,36.014181,-83.969034,Best Western Knoxville Suites,37912,TN
Jl Werkudara St,Hotels,Arvada,US,-8.700061999999999,115.16440700000001,The Jayakarta Bali,80001,CO
21 Holiday Blvd,"Corporate Lodging,Hotel and Meeting Room,Hotels,Lodging,Hotel",Mercer,US,41.143414,-80.16579,Holiday Inn Express Grove City (outlet Center),16137,PA
190 El Camino Real,Hotels,San Bruno,US,37.617582,-122.40851599999999,Hotel Aura Sfo,94066,CA
906 Maple Hill Rd,Hotels,Bloomington,US,40.487383,-89.035188,Hampton Inn Bloomington West,61704,Covell
250 Pacific St,Hotels,Morro Bay,US,35.364612,-120.85115900000001,Best Western Plus San Marcos Inn,93442,CA
1100 N Broadway,"Motels,Lodging,Hotels",Santa Maria,US,34.94034,-120.43602,Budget Inn-santa Maria,93454,Sisquoc
221 Shultz Rd,"Hotel,Hotels & Motels",Lancaster,US,39.98925,-76.29836999999999,Equestrian Estates Horse Farm Bed and Breakfast,17603,Manor Ridge
400 E International Speedway Blvd,Hotels,Deland,US,29.054737,-81.297208,Comfort Inn Deland - Near University,32724,FL
12678 Garrett Hwy,"Hotels,Hotel,Lodging,Bed & Breakfast & Inns,Motels,Hotels and Motels",Oakland,US,39.420506,-79.399055,Boardroom Motel,21550,Hutton
N535 State Highway 57,"Motels,Hotels,Lodging",Random Lake,US,43.559059999999995,-87.94045,Wisconsin-aire Motel,53075,WI
3200 W Broad St,"Hotel,Hotels",Richmond,US,37.566109999999995,-77.47480999999999,Quality Inn and Suites,23230,VA
61310 29 Palms Hwy,"Motels,Hotels,Corporate Lodging,Lodging,Resorts",Joshua Tree,US,34.13495,-116.325745,High Desert Motel,92252,CA
24977 Northwestern Hwy,Hotels,Southfield,US,42.472015999999996,-83.241718,Comfort Suites,48076,MI
1725 Long Beach Blvd,Hotels,Long Beach,US,33.78864,-118.18946399999999,Best Western of Long Beach,90813,CA
510 7th Ave E,"Travel and Tourism,Hotels,Lodging,Motels",Mobridge,US,45.537468,-100.423775,East Side Motel Cabins,57601,Gopher
404 S 44th St,Hotels,Mount Vernon,US,38.31069,-88.9489,Comfort Suites Mount Vernon,62864,Camp Ground
620 N 6th St,"Convention & Meeting Facilities & Services,Accommodation Reservations,Hotels,Banquet Facilities,Accommodations & Lodging",Phoenix,US,33.45499,-112.06685,Holiday Inn Express & Suites Phoenix Downtown - Ballpark,85004,AZ
1228 Bunker Hill Rd,"Hotel,Hotels",Huntsville,US,34.667004,-86.46892,Holiday Inn Express Hotel Suites Cookeville,35801,AL
1701 Us Highway 93 S,Hotels,Kalispell,US,48.18245,-114.30526,Fairbridge Inn,59901,MT
4107 Scottsville Rd,"Resorts & Vacation Cottages,Tourist Homes,Bed & Breakfasts,Hotels,Picnic Grounds,Hotels & Motels,Cottages,Bed & Breakfast Reservations,Tourist Hotels,Nature Centers,Historical Sites",Glasgow,US,36.954535,-85.961849,Four Seasons Country Inn,42141,Haywood
112 Main St,"Hotels,Lodging,Hotel,Bed & Breakfast & Inns,Motels,Bed & Breakfast",Gooding,US,42.944965,-114.71283999999999,Gooding Hotel Bed Breakfast,83330,ID
Via Regina 1,Hotels,Griante,US,45.987790999999994,9.234449,Grand Hotel Cadenabbia,22011,CO
Grosse Neugasse 36 38,Hotels,Raymond,US,50.939735999999996,6.961262,Hotel An Der Philharmonie,50667,IA
2087 Hotel Cir S,"Government Contractors,Bed & Breakfasts,Hotels,Extended Stay Hotels",San Diego,US,32.759003,-117.18196200000001,Extended Stay America,92108,CA
6713 N 2200 W,"Hotels,Lodging",Park City,US,40.728522999999996,-111.55332,Crestview Condominiums,84098,Summit Park
12 Rue Leon Frot,Hotels,Carrollton,US,48.85366,2.38803,Comfort Hotel Nation Pere Lachaise Paris 11,75011,TX
36750 Us Highway 19 N,Hotels,Palm Harbor,US,28.10667,-82.739915,Innisbrook,34684,FL
8917 W Hawk Ridge Rd,"Hotels,Lodging,Resorts,Bed & Breakfast & Inns",Coeur D Alene,US,47.66414,-116.90273,Cougar Crest Lodge,83814,ID
1020 University Pkwy,Hotels,Sarasota,US,27.381832,-82.549741,Springhill Suites By Marriott Sarasota Bradenton,34234,FL
3482 Benner Pike,"Hotels & Motels,Family-Friendly Hotels,Business Hotels,Budget Hotels,Hotel",Bellefonte,US,40.883027,-77.779928,Econo Lodge,16823,Wingate
400 New Britain Ave,Hotels,Plainville,US,41.672491,-72.837151,Fairfield Inn and Suites By Marriott Plainville,6062,CT
2600 Lake Cook Rd,"Travel & Transport,Hotels & Motels,Hotel",Deerfield,US,42.1531,-87.8897,Holiday Inn Express Hotel & Suites Chicago-deerfield/lincolnshire,60015,IL
309 Resort Doctor Exit 299 I 80,"Water Parks & Slides,Resorts,Lodging,Hotels",Tannersville,US,41.052673,-75.35351999999999,Camelback Resort Aquatopia Indoor Waterpark,18372,PA
1305 Lowell Ave,Hotels,Park City,US,40.65143,-111.50603999999998,Marriott's Mountainside At Park City,84060,UT
1145 Hammond Dr N E,"Hotels,Hotel",Atlanta,US,33.918756,-84.3485,Fairfield Inn & Suites Atlanta Perimeter Center,30328,Atl
3083 Carman Rd,Hotels,Schenectady,US,42.764084000000004,-73.939324,Super 8 Schenect/albany Area,12303-4550,NY
7984 Gateway East Blvd,"Hotels,Hotel",El Paso,US,31.750709999999998,-106.34291999999999,Intown Suites El Paso,79907,TX
1170 Kinley Rd,"Hotels,Hotel",Irmo,US,34.09128,-81.16051999999999,Extended Stay America - Columbia - Northwest Harbison,29063-9633,SC
1960 Harbor Island Dr,"Conventions Conferences & Trade Shows,Wedding Receptions & Parties,Convention & Meeting Facilities & Services,Hotels",San Diego,US,32.724775,-117.20989099999998,Hilton San Diego Airport/harbor Island,92101,CA
1701 N Moore Ave,"Wedding Receptions & Parties,Convention & Meeting Facilities & Services,Accommodation Reservations,Hotel & Motel Reservations,Extended Stay,Accommodations & Lodging,Lodging,Hotels Motels,Family-friendly Hotels,Conventions Conferences & Trade Shows,Hotels,Hotels & Motels,Weekend Getaway Hotels,Tourist Hotels,Motels",Moore,US,35.351797,-97.495296,Candlewood Suites Oklahoma City-moore,73160-3669,OK
3959 Traxler Ct,"Wedding Sites,Family-Friendly Hotels,Budget Hotels,Hotels & Motels,Business Hotels,Lodging,Beach Hotels,Resorts,Meeting Facilities,Weekend Getaway Hotels,Tourist Hotels",Bay City,US,43.625192999999996,-83.933687,Holiday Inn Express & Suites Bay City,48706,MI
7285 Us Hwy 2 E,Hotels,Columbia Falls,US,48.36373,-114.15178,Western Inn-glacier Park,59912,MT
3900 N Gateway Dr,Hotels,Appleton,US,44.30017,-88.37131,Americinn Lodge & Suites Appleton,54913,WI
5995 Cattleridge Blvd,Hotels,Sarasota,US,27.300319000000002,-82.450461,Hampton Inn Sarasota - I-75 Bee Ridge,34232,FL
11334 Oldenburg Ln,"Travel & Transport,Hotels,Hotels & Motels",Galena,US,42.437138,-90.448875,Country Inn and Suites By Carlson Galena,61036,IL
1886 Electric Rd,Hotels,Salem,US,37.265157,-80.03187,Hampton Inn Roanoke/salem,24153,Fort Lewis
59 Kingstown Rd,"Bed & Breakfasts,Hotels & Motels,Hotel,Bed and Breakfast",Narragansett,US,41.431695,-71.461518,1900 House,2882,Galilee
Carr Federal 307 Chet Pto Juarez,Hotels,Mont Belvieu,US,20.87549,-86.86814,Excellence Riviera Cancun - Adults Only - All Inclusive,77580,TX
1325 Wilson Blvd,Hotels,Arlington,US,38.89493,-77.07247,Hyatt Centric Arlington,22209,VA
1740 E Wooster St,"Hotel,Hotels,Lodging,Motels,Corporate Lodging",Bowling Green,US,41.374508,-83.61899,Days Inn Bowling Green,43402,OH
Riva Degli Schiavoni 4149,Hotels,Lithia Springs,US,45.43393,12.34551,Hotel Metropole,30122,GA
265 N Millward,Hotels,Jackson,US,43.482859999999995,-110.76506,Anglers Inn,83001,Jackson Hole
1880 W 12th St,Hotels,Crete,US,40.62246,-96.98470999999999,Super 8 Crete Ne,68333,Kramer
136 Emeryville Dr,Hotels,Cranberry Twp,US,40.67519,-80.10058000000001,Hyatt Place Pittsburgh Cranberry,16066,PA
999 N Second St,"Hotels,Hotel",Saint Louis,US,38.633021,-90.184037,Four Seasons Hotel St. Louis,63102,MO
Km 95 Carretera Cancun Tulum,Hotels,Beaumont,US,20.453789999999998,-87.27365,El Dorado Seaside Suites By Karisma - All Inclusive,77710,TX
625 Commercial Loop,"Hotel and Meeting Room,Convention and Meeting Facilities and Services,Hotels",San Marcos,US,29.824612,-97.9903,Courtyard San Marcos,78666,TX
2720 1st Ave,"Hotels,Lodging,Corporate Lodging",Spearfish,US,44.480470000000004,-103.81403,Fairfield Inn Suites Spearfish,57783,SD
5500 28th St S E,Hotels,Grand Rapids,US,42.91294,-85.5323,Best Western Hospitality Hotel and Suites,49512,MI
Via Della Scala 40,Hotels,Humeston,US,43.775490999999995,11.245648,Hotel Adler Cavalieri,50123,IA
23 S Little Church St,"Hotel,Hotels",Petersburg,US,37.229694,-77.3928,Royal Inn Motel,23803,Matoaca
309 N Peters Rd,Hotels,Knoxville,US,35.91483,-84.09107,Microtel Inn By Wyndham Knoxville,37922,Concord Farragut
760 S Kihei Rd,"Condominiums,Condominium & Townhouse Rental & Leasing,Hotel & Motel Management,Vacation Homes Rentals & Sales,Real Estate Management,Hotels,Lodging,Condominium Management,Motels",Kihei,US,20.763436,-156.45835300000002,Menehune Reservations,96753,HI
2600 Lehigh Ave,"Hotels,Hotel, Conference Room, and Meeting Room",Glenview,US,42.103679,-87.820893,Staybridge Suites Chicago - Glenview,60026,IL
210 Calvary Dr,"Hotels And Motels,Lodging",Glasgow,US,36.985054,-85.9343,Comfort Inn,42141,Haywood
Soguksu Milli Parki,"Hotel,Hotels",Southport,US,40.45411,32.622334,Patalya Thermal Resort,6890,CT
4965 Montevallo Rd,Hotels,Birmingham,US,33.529422,-86.715389,Comfort Inn Birmingham - Irondale,35210,Jefferson Park
2091 Eatonton Rd,Hotels,Madison,US,33.55675,-83.47497,Super 8 Madison,30650,GA
3400 S Range Line Rd,"Corporate Lodging,Hotels,Lodging,Hotel,Motel,Motels",Joplin,US,37.05198,-94.47845,Comfort Inn & Suites,64804,MO
603 Constitution Dr,"Wedding Receptions & Parties,Convention & Meeting Facilities & Services,Hotels",West Monroe,US,32.510228999999995,-92.169395,Holiday Inn Express & Suites West Monroe,71292,Brownsville
442 E Bennett Ave,"Hotels,Hotel",Cripple Creek,US,38.746787,-105.173574,Double Eagle Hotel and Casino,80813,CO
672 English Rd,"Family-Friendly Hotels,Hotels & Motels,Budget Hotels,Business Hotels,Tourist Hotels",Rocky Mount,US,35.979098,-77.84727600000001,"Country Inn & Suites By Carlson, Rocky Mount, Nc",27804,NC
850 Bayview Ave,"Hotels,Casinos",Biloxi,US,30.411692,-88.890249,Ip Casino Resort Spa,39530,MS
408 W Commerce Dr,"Hotels & Motels,Travel,Lodging,Apartment Hotels,Beach Hotels,Budget Hotels,Business Hotels,Extended Stay,Family-Friendly Hotels,Tourist Hotels,Weekend Getaway Hotels",Bryant,US,34.621443,-92.501182,La Quinta Inn & Suites Bryant,72022,AR
2060 S Harbor Blvd,Hotels,Anaheim,US,33.796738,-117.91509099999999,Travelodge Anaheim Convention Center,92802,CA
6971 S Tucson Blvd,Hotels,Tucson,US,32.124926,-110.934519,Hampton Inn Tucson-airport,85756,Tuscon
1720 E Main St,"Hotels,Lodging,Motels",Cushing,US,35.9856,-96.74215,Wilshire Inn Motel,74023,Norfolk
602 W Fort Macon Rd,Hotels,Atlantic Beach,US,34.701386,-76.74691,Palm Suites,28512,Pine Knoll Shores
2021 Park Pl,Hotels,Birmingham,US,33.520234,-86.808538,Hampton Inn & Suites-downtown-tutwiler,35203,AL
Maslinica Bay,"Hotel,Hotels",Guernsey,US,45.079082,14.150232999999998,Narcis,52221,IA
137 Ludwig Dr,"Travel & Transport,Hotels & Motels",Fairview Heights,US,38.601519,-89.994293,Comfort Suites,62208,Fairview Hts
10821 Caribbean Blvd,Hotels,Miami,US,25.578643,-80.367017,La Quinta Inn and Suites Miami Cutler Bay,33189,Cutler Ridge
25 Cherry St,"Corporate Lodging,Hotels,Lodging,Hotel,Motels",Burlington,US,44.47912,-73.21863,Courtyard Burlington Harbor,5401,Burl
1901 W Main St,"Hotel,Hotels",Rapid City,US,44.07962,-103.24987,Rapid City Days Inn,57702,Hisega
18 Hematite Pl,"Hotels,Hotel",Healy,US,63.877674,-149.00726,Aspen Haus Bed and Breakfast,99743,AK
1675 W Patterson Ave,"Bed & Breakfasts,Hotels & Motels,Hotel,B&bs / Inns",Ulysses,US,37.591044000000004,-101.371057,Fort's Cedar View,67880,KS
1300 Birkes Rd,"Travel & Leisure,Hotels,Lodging,Hotel,Eufaula Hotels and Motels,Motels,Hotels and Motels,Eufaula",Eufaula,US,35.303329999999995,-95.59251,Best Western Eufaula Inn,74432,Lake Eufaula
1400 Thelma Keller Ave,Hotels,Effingham,US,39.14055,-88.565983,Super 8 - Effingham,62401,Boggsville
100 4th Ave S,"Hotel Downtown St. Cloud,Hotels",Saint Cloud,US,45.56067,-94.15608,Best Western Plus Kelly Inn,56301,MN
1161 W Washington Center Rd,Hotels,Fort Wayne,US,41.13243,-85.15651,Days Inn Fort Wayne,46825,IN
7411 Vantage Dr,"Corporate Lodging,Hotels,Lodging,Hotel,Motels",Columbus,US,40.1145383,-83.0154621,Courtyard Columbus Worthington,43235,OH
6516 14th St W,Hotels,Bradenton,US,27.424069,-82.575539,Super 8 Bradenton Sarasota Area,34207,FL
601 N Water St,"Hotels,Attorneys,Mediation Services,Lodging",Corpus Christi,US,27.796791,-97.3927,Hotel Corpus Christi,78401,TX
701 Redwood Dr,Hotels & Motels,Garberville,US,40.101941,-123.794454,Best Western Plus Humboldt House Inn,95542,CA
1850 S Harbor Blvd,"Hotels,Corporate Lodging,Lodging,Motels,Restaurants",Anaheim,US,33.801777,-117.91515,Red Lion Anaheim Maingate Hotel,92802,CA
2 County Road 4275,"Hotels,Lodging,Inns,Bed & Breakfast & Inns,Motels",Navajo Dam,US,36.8921,-107.603,Octagon Inn,87419,NM
635 N Euclid Ave,"Travel and Tourism,Whiskey Bars,Pubs,Hotel,Lodging,Wine Bars,Hotels and Lodging,Taverns,Bars,Brew Pubs,Hotels,Bar & Grills,Bed & Breakfast & Inns,Motels",Pierre,US,44.37594,-100.34851,Hitching Horse Inn,57501,Canning
2264 E Perry Rd,"Hotels,Hotel",Plainfield,US,39.675394,-86.366525,Homewood Suites By Hilton Indpls Airport / Plainfield In,46168,IN
405 W Us Highway 2,"Lodging,Corporate Lodging,Hotels",Leavenworth,US,47.19644,-120.943665,Howard Johnson,98826,Chumstick
1282 W 7th St,Hotels,Upland,US,34.088809999999995,-117.67238,Super 8 - Upland,91786,CA
372 W Geneva St,"Bed & Breakfasts,Hotels & Motels,Bed & Breakfasts (b&b)",Williams Bay,US,42.575382,-88.556246,Bailey House Bed & Breakfast,53191,WI
1605 W Loop 1604 S,"Hotels,Lodging,Hotel",San Antonio,US,29.41358,-98.70959,Microtel Inn Suites By Wyndham San Antonio By Seaworld,78245,TX
Zepernicker Chaussee 39/53,"Hotel,Bernau Hotels",East Hickory,US,52.67398000000001,13.568842000000002,Comfort Hotel Bernau,16321,PA
316 E 3rd St,"Travel and Tourism,Hotels,Budget Hotels,Hotels & Motels,Hotel,Lodging,Motels",Owensboro,US,37.773652,-87.10795300000001,Budget Inn,42303,KY
4350 S W 8th St,"Hotels,Lodging,Motels",Miami,US,25.764329999999998,-80.26619000000001,Miami Executive Hotel,33134,FL
3450 Us Highway 1,"Hotels,Lodging,Corporate Lodging,Hotels-Apartment",Princeton,US,40.303864000000004,-74.67143,Extended Stay America Princeton - West Windsor,8540,Princeton Twp
Rua Desembargador Motta 2044 Batel,Hotels,Curitiba,US,-25.43675,-49.281459999999996,Mercure Curitiba Golden Hotel,,PR
2611 N Us Hwy 83,"Hotel,Hotels & Motels,Lodging",Carrizo Springs,US,28.545881,-99.845145,Quality Inn & Suites,78834,TX
1401 Martin Luther King Jr Dr,Hotels,Monroe,US,32.49375,-92.08275,Comfort Suites,71202,LA
4260 Broadway,"Family-Friendly Hotels,Hotels & Motels,Budget Hotels,Lodging,Business Hotels,Hotel",Eureka,US,40.767604999999996,-124.191895,Comfort Inn Humboldt Bay,95503-5738,CA
30954 S Highway 69,Hotels,Vinita,US,36.57115,-95.22049,Super 8 Big Cabin Vinita Ok,74301,White Oak
E 5 Karayolu (yanyol) No 20,Hotels,Englewood,US,41.000606,28.802515000000003,Radisson Blu Conference and Airport Hotel,34295,FL
114 Blythewood Rd,Hotels,Blythewood,US,34.21438,-80.97437,Days Inn North Columbia Ft. Jackson,29016-8425,SC
42 Avenue Guy De Collongue,Hotels,Cozad,US,45.787482000000004,4.764851,Campanile Lyon Ecully,69130,NE
524 N La Brea Ave,"Hotels,Bed & Breakfast & Inns,Motels,Lodging",Inglewood,US,33.96999,-118.35586,La Brea Hotel,90302,CA
205 Windstar Pl,"Hotels,Hotel",Southern Pines,US,35.159924,-79.410489,Microtel Inn By Wyndham Southern Pines,28387,NC
2747 N Stemmans Fwy,"dallas,Hotels,Hotel,dallas hotels,texas (tx),united states",Dallas,US,32.80911,-96.84785500000001,Homewood Suites Dallas-market Center,75207,TX
115 E James St,"Bed & Breakfasts,Hotels & Motels,B&bs / Inns",Mullins,US,34.207755,-79.25474399999999,Websters Manor,29574,SC
125 Sloane Garden Rd,Hotels,Boiling Springs,US,35.011314,-81.954798,Americas Best Value Inn,29316,SC
60671 State Highway 23,"Hotels,Lodging,Motels",Finlayson,US,46.17973,-92.85486,Americas Best Value Inn,55735,Giese
225 Route 28,Hotels,West Yarmouth,US,41.655436,-70.256179,Bayside Resort Hotel,2673,Yarmouth
1287 N Saint Louis St,Hotels,Batesville,US,35.79068,-91.63828000000001,Super 8 Batesville Ar,72501,AR
1923 Dover St,"Hotel,Hotels",Worthington,US,43.629090000000005,-95.58076,Sunset Inn,56187,MN
121 E Arrellaga St,Hotels,Santa Barbara,US,34.428888,-119.707704,Simpson House Inn,93101,CA
4959 State Highway 84,"Hotel,Hotels",Longville,US,46.98411,-94.210236,Longville Inn,56655,Brevik
1657 Cambridge St,Hotels,Cambridge,US,42.374972,-71.11040799999999,A Bed & Breakfast In Cambridge,2138,MA
600 E Columbia River Hwy,"Hotels,Lodging,Resorts,Bed & Breakfast & Inns",Clatskanie,US,46.102,-123.19881000000001,Clatskanie River Inn,97016,Mist
323 Route 52 (kennett Pike),Hotels,Mendenhall,US,39.85972,-75.64614,Inn At Mendenhall,19357,PA
62065 27th St,Hotels,Bend,US,44.05227,-121.26361000000001,Comfort Inn and Suites Bend,97701,OR
155 S Seward St,"ski & snowboard areas,Resorts,Lodging,Travel,Ski Resorts,Hotels & Motels",Juneau,US,58.299629,-134.405992,Eaglecrest Ski Area,99801,AK
18 Buff Blvd,Hotels & Motels,Summerton,US,33.592181,-80.356729,Magnuson Hotel Summerton,29148,Goat Island Resort
345 Griffin Bell Dr,Hotels,Hopkinsville,US,36.81071,-87.49478,La Quinta Inn and Suites Hopkinsville,42240,KY
908 N Reynolds Rd,"Travel and Tourism,Hotels,Lodging,Motels",Toledo,US,41.64883,-83.66463,Lighthouse Motel,43615,Sylvania Twp
2577 W Greenway Rd,Hotels,Phoenix,US,33.625296,-112.11352099999999,Park Terrace Suites,85023,AZ
1054 Pine St,"Hotels,Lodging,Resorts,Motels",Pinedale,US,42.866609999999994,-109.8744,Super 8,82941,WY
1014 W Doolin Ave,"Hotels,Hotels & Motels",Blackwell,US,36.8115,-97.29803000000001,Super 8 Blackwell Ok,74631,OK
5465 N State Highway 17,"Hotel,Hotels",Mosca,US,37.65417,-105.87038000000001,Sand Dunes Motel,81146,CO
304 Us Highway 22,"Corporate Lodging,Lodging,Hotels",Springfield,US,40.684914,-74.33085,Holiday Inn,7081,NJ
281 Zion Park Blvd,"Motels,Party & Event Planners,Lodging,Banquet Halls & Reception Facilities,Resorts,Hotels",Springdale,US,37.196957,-112.99216499999999,Cliffrose Lodge Gardens,84767,UT
120 N Arney Rd,"Lodging,Motels,Hotels,Meeting & Event Planning Services",Woodburn,US,45.15238,-122.88394,La Quinta,97071,OR
501 National St,"Hotels,Hotels & Motels",Belle Fourche,US,44.66265,-103.85426,Super 8 Belle Fourche,57717,Willet
386 Pacific St,"Hotels,Bed & Breakfasts,Hotels & Motels",Monterey,US,36.600532,-121.89569399999999,Merritt House Inn,93940,Presidio Of Monterey
6715 Financial Cir,Hotels,Shreveport,US,32.45013,-93.86206999999999,Comfort Suites Shreveport,71129,LA
24001 Lorenzo Rd,"Hotels,Motels,Halls Auditoriums & Ballrooms,,Meeting & Event Planning Services",Wilmington,US,41.34598,-88.1956,Knights Inn - Wilmington,60481,Lorenzo
710 Park Pl,Hotels,Clinton,US,36.16315,-84.08504,Country Inn & Suites By Carlson,37716,TN
2055 Hilltop Dr,"Travel,Extended Stay,Family-Friendly Hotels,Hotels & Motels,Budget Hotels,Lodging,Beach Hotels,Business Hotels,Apartment Hotels,Pizza Place,Tourist Hotels,Weekend Getaway Hotels",Redding,US,40.577811,-122.35768799999998,Pizza Hut,96002,CA
1035 W South Blvd,Hotels,Montgomery,US,32.327641,-86.33771,Comfort Inn Montgomery,36105,AL
1895 S Schuyler Ave,"Travel & Transport,Hotels & Motels",Kankakee,US,41.09319,-87.86923,Spinners Tailspin Inn,60901,IL
131 W Lincoln Rd,"Hotels,Lodging,Motels,Hotels and Motels",Alma,US,43.376896,-84.607124,Triangle Motel,48801,MI
942 Main St,Hotels,Hartford,US,41.76808,-72.67296999999999,Residence Inn By Marriott Hartford Downtown,6103,CT
1116 Highway 2 E,"Hotels,Lodging,Motels,Bed & Breakfast & Inns",Devils Lake,US,48.10113,-98.84846999999999,Great American Inn Suites,58301,ND
4001 Closner Business 281,"Hotels,Budget Hotels,Hotels & Motels,Lodging",Edinburg,US,26.33373,-98.248491,Comfort Inn,78539,Lull
1420 Richmond Rd,"Bed & Breakfast & Inns,Lodging,Hotels",Williamsburg,US,37.28775,-76.721695,Patriots Inn,23185,Wmsbg
4530 S Emerson Ave,Hotels,Indianapolis,US,39.70131,-86.083857,Super 8 Indianapolis,46203,IN
6506 I 27 S,"Hotels,Hotel",Lubbock,US,33.53581,-101.84586999999999,Holiday Inn Express Lubbock South,79412,TX
1505 Belvedere Rd,"Hotels,Lodging,Corporate Lodging,Motels",West Palm Beach,US,26.69091,-80.07274,Stay Inn,33406,Lake Clarke
910 S Church Ln,"Hotels & Motels,Hotels",Tappahannock,US,37.923133,-76.859002,Southside Motel,22560,VA
1740 S 48th St,Hotels,Springdale,US,36.17033,-94.18366,Residence Inn By Marriott Springdale,72762,AR
103 Wingate Ter,"Hotels & Motels,Family-Friendly Hotels,Weekend Getaway Hotels,Lodging,Business Hotels",Lagrange,US,33.042491,-84.964116,Wingate By Wyndham Lagrange,30241,GA
2055 Business Loop I 75,"Hotels,Lodging,Hotel,Motels",Saint Ignace,US,45.87557,-84.73229,Bear Cove Inn,49781,MI
5805 Delmonico Dr,Hotels,Colorado Springs,US,38.916011,-104.82370999999999,Hyatt House Colorado Springs,80919,Co Spgs
460 Main St,"Restaurants,Bed & Breakfasts,Hotels & Motels,Lodging,Resorts",Walden,US,40.730393,-106.28220800000001,Antlers Inn,80480,CO
6 127th St,"Hotels,Lodging,Motels",Ocean City,US,38.43228,-75.05379,Marylander Hotel Condo,21842,West Ocean City
2608 E Malone Ave,"Motel and Hotel,Hotels & Motels",Sikeston,US,36.89065,-89.540256,Drury Inn & Suites Sikeston,63801,MO
207 Highway 68,Hotels,Sweetwater,US,35.598433,-84.51119,Economy Inn,37874,TN
3320 Mesa Rd,"Golf Courses - Private,Hotels,Resorts",Colorado Springs,US,38.88037,-104.8682,Garden of The Gods Club & Resort,80904-1036,CO
1525 Centeral Ave,"Hotels,Hotel",Hot Springs National Park,US,34.49832,-93.05674,Sands Central Inn Hot Springs,71901,Blue Springs
125 W 26th St,"Conventions Conferences & Trade Shows,Wedding Receptions & Parties,Convention & Meeting Facilities & Services,Hotels,Conference Room,Accommodations & Lodging,Hotel,Meeting Room,Motels",New York,US,40.74535,-73.99234399999999,Holiday Inn Manhattan 6th Ave - Chelsea,10001,G P O
110 E Cedar St,"Cruise Lines & Agents,Convention Visitors & Information Centers,Hotels,Travel Agents,Travel Agency,E-Commerce",Goodlettsville,US,36.323377,-86.712644,Vacation Side Travel,37072,TN
5900 N E Ray Cir,Hotels,Hillsboro,US,45.532877,-122.92086299999998,Holiday Inn Express - Hillsboro,97124,Orenco
1235 N Warm Springs Rd,"Bed & Breakfast & Inns,Lodging,Motels,Hotels",Midway,US,40.53192,-111.48952,Blue Boar Inn,84049,UT
199 Fort Chiswell Rd,"Hotels,Hotel",Max Meadows,US,36.94077,-80.94398000000001,Hampton Inn Ft Chiswell,24360,VA
409 Centro Way,Hotels,Fort Collins,US,40.5833,-105.00756000000001,Super 8 Fort Collins,80524,CO
7865 Perry Hwy,"Hotels,Hotels & Motels,Hotel",Erie,US,42.071304,-80.03911,Red Roof Inn Erie,16509-6642,PA
25 W 51st St,Hotels,New York,US,40.760020000000004,-73.978387,"Club Quarters, Rockefeller Center",10019,Nyc
4420 Cleburne Blvd,Hotels,Dublin,US,37.072559999999996,-80.69685,Hampton Inn Dublin,24084,VA
175 N W Gilbert Way,"Motels,Lodging,Hotels",Newport,US,44.67388,-124.06068,Agate Beach Motel,97365,OR
6260 Texaco Dr,"Hotels,Hotels & Motels",Eau Claire,US,44.84402,-91.59572,Knights Inn Eau Claire,54703,WI
124 Womack Dr,Hotels,Annapolis,US,38.97555,-76.54838000000001,Hampton Inn and Suites Annapolis,21401,MD
1505 Highway 17,"Vacation Homes Rentals & Sales,Hotels,Lodging,Motels,B&bs / Inns",Little River,US,33.875370000000004,-78.61731,Mineola Motel,29566,SC
1379 Washington Ave,"Hotels,Hotel",Albany,US,42.686743,-73.815101,Towneplace Suites Albany University Area,12206,NY
3280 Dunes Dr,Hotels,Marina,US,36.69925,-121.805553,Monterey Beach Dunes Inn,93933,CA
1005 Belmont St,"Hotels,Lodging,Motels,Hotel",Brockton,US,42.063783,-71.057816,Rodeway Inn,2301,MA
11900 N W Plaza Cir,Hotels,Kansas City,US,39.309014000000005,-94.6826,Super 8 Kansas City Airport,64153,MO
3 Rue Verniquet,Hotels,Irving,US,48.886905,2.3005709999999997,Best Western Hotel De Neuville,75017,TX
50 Capital Ave S W,Hotels,Battle Creek,US,42.312,-85.19201,Mccamly Plaza Hotel,49017,MI
4711 N Elizabeth,Hotels,Pueblo,US,38.32148,-104.618378,Wingate By Wyndham Pueblo,81008,CO
614 Clark Dr,"Hotels,Hotel",Lincolnton,US,35.47112,-81.23998,Days Inn Lincolnton,28092,NC
Av De Isabel Manoja 9,Hotels,Abbeville,US,36.62315,-4.5012099999999995,Hotel Roc Flamingo,29620,SC
N1055 Tombeau Rd,"Bars & Clubs,Hotels & Motels",Genoa City,US,42.528357,-88.30589300000001,"Nippersink Country Club, Inc.",53128,WI
1507 W Oakland Ave,"Hotel,Hotels",Austin,US,43.666462,-92.99311,Sterling Motel,55912,Andyville
390 E Broadway,Hotels,Eugene,US,44.04972643,-123.08673259999999,Campus Inn & Suites Eugene Downtown,97401,OR
421 State Route 2,"Bed & Breakfasts,Hotels & Motels",Gorham,US,44.393265,-71.124839,Mt. Washington Bed and Breakfast,3581,NH
2055 E 5th St,"Travel & Transport,Hotels,Hotels & Motels",Metropolis,US,37.162308,-88.690626,Super 8 Metropolis,62960,Round Knob
1130 W 1st St,Hotels & Motels,Portales,US,34.181306,-103.346036,Sand's Motel,88130,NM
23500 Welcome Way Dr,Hotels,Ruther Glen,US,37.93889,-77.47339000000001,Travelodge Ruther Glen,22546,VA
Viale Garibaldi 24,Hotels,Silver Creek,US,45.496711,12.244639999999999,Hotel Garibaldi,30173,GA
153 James Asbury Dr N W,Hotels,Cleveland,US,35.210370000000005,-84.87075,Quality Inn,37312,TN
44315 Gratiot Ave,"Hotel,Hotels",Clinton Township,US,42.62301,-82.865685,The Concorde Inn,48036,MI
3107 Atlantic Ave,"Hotel,Hotels",Virginia Beach,US,36.859787,-75.97803499999999,Hampton Inn Virginia Beach Oceanfront North,23451-2934,VA
909 Us 17,Hotels,Little River,US,33.868213,-78.632786,Sleep Inn At Harbour View,29566-9207,SC
890 Ross Pl,Hotels,Lavonia,US,34.444511999999996,-83.120563,Hotel Lavonia,30553,GA
15 Howard Blvd,Hotels,Mount Arlington,US,40.900052,-74.634776,Courtyard By Marriott Rockaway Mount Arlington,7856,NJ
4934 N W Loop 410,Hotels,San Antonio,US,29.487838,-98.583884,Fiesta Inn and Suites,78229,TX
1443 Pabst Farms Cir,"Hotels,Hotel",Oconomowoc,US,43.0719,-88.46372,Hilton Garden Inn Oconomowoc,53066,WI
1210 Brukner Dr,"Corporate Lodging,Hotels,Lodging,Motels",Troy,US,40.02353,-84.226265,Econo Lodge,45373,OH
7455 Woodland Dr,"Travel and Tourism,Extended Stay,Hotels,Hotel,Bed and Breakfast,Hotel, Conference Room, and Meeting Room Park 100,Motels,Hotels and Lodging",Indianapolis,US,39.888268,-86.26509,Candlewood Suites Indianapolis Northwest,46278,IN
625 W Rolling Meadows Dr,Hotels,Fond Du Lac,US,43.75521,-88.47649,Holiday Inn Fond Du Lac,54937,WI
7875 E Hwy 69,Hotels,Prescott Valley,US,34.585531,-112.326875,Arizona Inn of Prescott Valley,86314,AZ
2185 W Hanford Rd,"Hotels,Family-Friendly Hotels,Budget Hotels,Hotels & Motels,Business Hotels,Tourist Hotels",Burlington,US,36.06256,-79.43484000000001,Microtel Inn and Suites By Wyndham Burlington,27215,NC
101 Chelsea Rd,"Hotels,Bed & Breakfasts",Bella Vista,US,36.464432,-94.251779,The Inn At Bella Vista,72714,AR
3201 E Pacific Coast Hwy,Hotels,Signal Hill,US,33.790227,-118.154554,Quality Inn Long Beach Airport,90755,CA
1200 N Shartel Ave,"Bed & Breakfast & Inns,Lodging,Hotels,Bed & Breakfasts",Oklahoma City,US,35.47999,-97.52557,Grandison Bed Breakfast,73103,OK
73 Tinker St,"hotels & motels,Hotels,Lodging,Hotel,B&bs / Inns,Bed and Breakfast,travel,Bed & Breakfast & Inns,Motels,Uncategorized",Woodstock,US,42.04035,-74.12098,Twin Gables of Woodstock,12498,NY
121 Raydo Cir,Hotels,Springfield,US,39.89509,-83.81486,Comfort Suites,45506,OH
1745 S E Marshall St,Hotels,Boone,US,42.035281,-93.876328,Baymont Inn and Suites Boone,50036,IA
1570 N Newport Rd,"Hotels,Hotel,Hotel Colorado Springs Airport",Colorado Springs,US,38.80819,-104.72747,Springhill Suites Marriott Colorado Springs South,80916,Co Spgs
2407 N Illinois Route 178,Hotels,Oglesby,US,41.281081,-89.010139,Brightwood Inn Country Inn,61348,Piety Hill
400 S Main St,Hotels,Fort Bragg,US,39.43815,-123.80601999999999,Motel 6 Fort Bragg,95437,Inglenook
5414 E Main St,"Hotel,Hotels & Motels",Mesa,US,33.4157,-111.7143,Westernaire Motel,85205,AZ
5700 Freedom Dr,Hotels & Motels,Columbia,US,38.961861,-92.24376,Super 8 Columbia East,65202,Lindbergh
2607 Atlantic Ave,Hotels,Virginia Beach,US,36.85497235,-75.97641885,Holiday Inn Express Hotel and Suites Va Beach Oceanfront,23451,VA
355 Santana Row,"Hotels,Hotel, Bar, and Hotel Bar",San Jose,US,37.32098,-121.9479,Hotel Valencia Santana Row,95128,CA
1535 Broadway,"Banquet Rooms,Hotels,Banquet Facilities,Hotels & Motels,Hotel,Hotels Motels",New York,US,40.758465,-73.985639,New York Marriott Marquis,10036,Nyc
545 Humboldt Ave,"Wedding Receptions & Parties,Convention & Meeting Facilities & Services,California (ca),Halls & Auditoriums,Hotel & Motel Reservations,Hotel,Party Planning Service,Meeting Facilities,Hotel & Motel Consultants,Hotels,Willows,Hotels & Motels,Resorts,Willows Hotels",Willows,US,39.526682,-122.212249,Holiday Inn Express & Suites Willows,95988,CA
205 Main St,Hotels,Grand Junction,US,39.067321,-108.56914099999999,Hampton Inn Grand Junction Downtown/historic Main Street,81501,CO
261 Interstate Commercial Park Loop,"Meeting & Event Planning Services,Hotels,Lodging,Motels",Prattville,US,32.485813,-86.40930999999999,La Quinta,36066,AL
1765 Young St,"Hotels,Hotel,Lodging,Motels",Selma,US,36.563004,-119.61320500000001,Villager Inn Motel,93662,CA
621 Esplanade Ave,Hotels,New Orleans,US,29.9632203,-90.059329,Lamothe House,70116,LA
256 Moo 4 Najomtien,"Hotel,Hotels",Washington,US,13.368448,100.987206,Dor-shada Resort By The Sea,20260,DC
142 Oak Ct,Hotels,Slidell,US,30.22415,-89.78667,Sleep Inn Slidell,70458,LA
1200 West Ave,"Hotel,Hotels",New Castle,US,39.698485999999995,-75.55117,Knights Inn New Castle/wilmington,19720,DE
5900 N Oracle Rd,"Luxury Hotels,Hotels,Resorts Reservations,Hotels & Motels,Honeymoon Resorts",Tucson,US,32.31373,-110.97747700000001,"La Posada Lodge & Casitas, An Ascend Hotel Collection Member",85704,AZ
100 S 4th St,Hotels,Huntingdon,US,40.48387,-78.01093,Comfort Inn Huntingdon,16652,PA
1600 Lamar,"Hotels & Motels,Wedding Sites,Meeting Facilities,Banquet Rooms,Restaurants,Wedding Planners,Coffeehouses,Mexican",Houston,US,29.75143553,-95.36045909,Hilton Americas-houston,77010,TX
23702 Rockfield Blvd,Hotels,Lake Forest,US,33.628221,-117.715975,Quality Inn and Suites Irvine Spectrum,92630,CA
1915 6th St N,"Corporate Lodging,Hotels,Hotels & Motels,Lodging",Columbus,US,33.514122,-88.42615,Hampton Inn Suites Columbus,39701,G T Airport
1017 W Main St,"General Contractors,Hotel,Hotels",Hendersonville,US,36.30493,-86.652794,Intown Suites Nashville North,37075,TN
106 E North St,"Hotels,Lodging,Hotel,Bed & Breakfast & Inns,Motels",Leesville,US,31.144866999999998,-93.26334,The Booker-lewis,71446,Hawthorne
301 S Black Horse Pike,Hotels,Bellmawr,US,39.86358,-75.07821,Econo Lodge Bellmawr,8031,Gloucester City
104 Mallard St,Hotels,Sulphur,US,30.213690000000003,-93.32655,Crossland Economy Studios - Lake Charles - Sulphur,70665,LA
301 W San Juan Ave,Hotels & Motels,Telluride,US,37.936026,-107.813392,Hotel Columbia,81435,Pandora
308 Canyon Dr,"Raton Hotels and Motels,Raton,operation,Travel & Leisure,hotels & motels,Hotels,Hotel,travel,Hotels and Motels",Raton,US,36.90992,-104.44176999999999,Raton Pass Inn,87740,NM
15506 E Main St,"Hotel,Hotels",Sumner,US,47.202366,-122.22268999999999,Sumner Motor Inn,98390,Dieringer
602 E 4th St,"Travel and Tourism,Hotels,Lodging,Hotel,Motels,Swimming Pools,Hotels & Motels",North Platte,US,41.13524203,-100.75665670000001,Americas Best Value Inn,69101,NE
600 N Mathilda Ave,Hotels,Sunnyvale,US,37.392275,-122.02966699999999,Best Western Silicon Valley Inn,94085,CA
9023 Annapolis Road/i 495,Hotels,Lanham,US,38.96123,-76.86225999999999,Days Inn Lanham Washington Dc,20706,Seabrook
3811 Edward Rd,Hotels,Princeville,US,22.226328,-159.481416,Cliffs 7305 By Redawning,96722,HI
446 Southbridge St,Hotels,Auburn,US,42.199763,-71.840633,La Quinta Inn Auburn Worcester,1501,MA
2731 S Carson St,Hotels,Carson City,US,39.142715,-119.767824,Americas Best Value Inn,89701,Carson Colony
3060 Green Mountain Dr,Hotels,Branson,US,36.632771999999996,-93.27200400000001,Dockers Inn,65616,Bull Creek Village
708 Horizon Dr,Hotels & Motels,Grand Junction,US,39.107304,-108.543741,Days Inn,81506,CO
3005 Franklin Blvd,"Hotel, Conference Room, and Meeting Room South Eugene,Travel and Tourism,Extended Stay,Hotels,Hotel,Bed and Breakfast,Motels,Hotels and Lodging",Eugene,US,44.04401959,-123.0476193,Candlewood Suites Eugene Springfield,97403,OR
12015 Harbor Blvd,Hotels,Garden Grove,US,33.788140000000006,-117.916591,Anaheim Marriott Suites,92840,CA
5059 Highway 140,Hotels,Mariposa,US,37.486574,-119.967114,Monarch Inn,95338,CA
1022 N 1st St,"Motels,Lodging,Bed & Breakfast & Inns,Hotels",Yakima,US,46.614468,-120.51191000000001,Yakima Inn,98901,Sumach
3480 Hutton St,"Hotels,Lodging",Springfield,US,44.083797,-123.03951,Holiday Inn Express,97477,Spfld
3940 Centerview Dr,"Hotels,Family-Friendly Hotels,Budget Hotels,Hotels & Motels,Business Hotels,Lodging,Tourist Hotels",Chantilly,US,38.89765,-77.43159,Wingate By Wyndham Chantilly / Dulles Airport,20151,VA
1606 Central Ave,Hotels,Albany,US,42.718398,-73.833766,Days Inn and Suites Albany,12205,Colonie Center
35 Via Pico Plz,Hotels,San Clemente,US,33.437538,-117.62173200000001,Holiday Inn Express San Clemente,92672,CA
3391 Peachtree Rd N E,Hotels,Atlanta,US,33.848865999999994,-84.365492,The Westin Buckhead,30326,GA
1210 A Ave E,"Motels,Lodging,Corporate Lodging,Hotels,Resorts",Oskaloosa,US,41.296288,-92.63163,Budget Inn,52577,Evans
7500 N Point Pkwy,"Hotels,Hotel",Alpharetta,US,34.041713,-84.30359200000001,Hyatt Place Atlanta/alpharetta/north Point Mall,30022,GA
695 Campbell St,"Motels,Lodging,Hotels,B&bs / Inns",Baker City,US,44.78164,-117.81461999999999,Eldorado Inn,97814,Baker
450 Raynolds St,Hotels,El Paso,US,31.77634,-106.43274,Americas Best Value Inn - Medical Center/airport,79905,TX
68 W Hwy Hwy 380,"Hotel,Hotels",Tatum,US,33.381859999999996,-103.395424,Sunset Inn,88267,NM
9941 W Charleston Blvd,"Hotels,Bed & Breakfast & Inns,Restaurants",Las Vegas,US,36.15889,-115.31277,Outside Inn,89117,NV
1584 Susan Rd,"Hotels & Motels,Hotel,Resorts",Lake Ozark,US,38.206224,-92.665213,Point Randall Resort,65049,Vlg Of 4 Ssns
222 S Broadway Ave,Hotels,Boise,US,43.608151,-116.19218400000001,Courtyard By Marriott Downtown Boise,83702,ID
269 Fontana Blvd,"Travel,Spa,Restaurants,Business Hotels,Lodging,Villas,Resorts & Vacation Cottages,Health Spas,Restaurant,Hotels,Family-Friendly Hotels,Budget Hotels,Hotels & Motels,Resorts,Tourist Hotels,Resort",Fontana,US,42.548854,-88.576382,The Abbey Resort,53125,WI
5300 S Pulaski Rd,"Hotels,Lodging,Motels",Chicago,US,41.79735,-87.72327,Crossroads Hotel,60632,IL
280 E Mel Ave,"Resorts,Hotels,Lodging,Motels",Palm Springs,US,33.840755,-116.54468,Helios Resort,92262,Palm Springs Municipal Airpo
715 Boll Weevil Cir,"Lodging,Corporate Housing,Hotels & Motels,Budget Hotels",Enterprise,US,31.327116999999998,-85.83555600000001,Best Western Plus Circle Inn,36330,AL
1293 W Broadway St,Hotels,Idaho Falls,US,43.49497,-112.052329,Fairfield Inn and Suites By Marriott Idaho Falls,83402,ID
222 N Ingram Mill Rd,Hotels,Springfield,US,37.2085,-93.22816,Greenstay Hotel and Suites,65802,MO
4800 S Ocean Blvd,Hotels,North Myrtle Beach,US,33.791179,-78.73470400000001,Beach Cove 411 Tower A Sierra's 1 Bedroom Condo By Prista Management,29582,Cherry Grove
2605 Weston Rd,Hotels,Fort Lauderdale,US,26.085576,-80.37226899999999,Residence Inn By Marriott Fort Lauderdale Weston,33331,Southwest Ranches
1805 Birch Rd,"Corporate Lodging,Apartments,Real Estate Agents,Student Housing & Services,Retirement Apartments & Hotels,Apartment Finder & Rental Service,Educational Services,Lodging",Kenosha,US,42.625263000000004,-87.82863,Petretti Apartments,53140,WI
6843 W M 72 Hwy,"Hotels,Lodging,Motels",Grayling,US,44.657326,-84.74439,Motel 6,49738,MI
40 Berkeley St,"Hotels,Hostel",Boston,US,42.346133,-71.07103199999999,40 Berkeley Hostel,2116,MA
603 Adcolor Dr,"Hotels & Motels,Family-Friendly Hotels,Extended Stay,Tourist Hotels,Weekend Getaway Hotels,Lodging",Lexington,US,38.074106,-84.497124,Candlewood Suites Lexington,40511-1847,KY
Paseo De La Quinta No 6,Hotels,Whigham,US,16.79203,-99.82723,Quinta Real Acapulco,39897,GA
1345 Forest Hill Rd,"Vacation Home Rental,Hotels,Bed & Breakfasts,Inns,B&bs / Inns",Stevens,US,40.246049,-76.246328,Forest Hill Inn,17578,Schoeneck
1010 Race St,"Hotel,Hotels",Philadelphia,US,39.955459999999995,-75.15647,Clarion Suites Philadelphia,19107,Wm Penn Anx W
12825 Ventura Blvd,Hotels,Studio City,US,34.144791,-118.41155,Sportsmen's Lodge,91604,CA
88 E Nationwide Blvd,Hotels,Columbus,US,39.969219,-82.999881,Drury Inn and Suites Columbus Convention Center,43215,OH
Carretera De Jandia Km 11,Hotels,Anderson,US,28.383928000000004,-13.866039,Elba Sara Beach & Golf Resort,35610,AL
5040 Redwood Dr,Hotels,Rohnert Park,US,38.3636,-122.71498000000001,Good Nite Inn Rohnert Park,94928,CA
121 Haught Rd,"Hotel,Hotels",Payson,US,34.25475,-111.27377,The Merritt Center and Lodge,85547,AZ
1555 Aultman St,"Hotels,Hotels & Motels,Lodging,Motels",Ely,US,39.250583,-114.882046,Rustic Inn,89301,Currie
850/A Speedway Industrial Dr,"Hotels,Lodging,Motels",Lincoln,US,33.57963,-86.05954,Comfort Inn,35096,AL
6505 Metal Dr,Hotels,Fort Pierce,US,27.412418,-80.390934,Comfort Suites Fort Pierce,34945,FL
420 East Pike,"Hotel,Hotels",Indiana,US,40.62034,-79.13034,Twin Pines Motel,15701,PA
185 Brainard Rd,"Travel and Tourism,Hotels",Hartford,US,41.734582,-72.65952,Best Western Hartford Hotel & Suites,6114,Htfd
150 Royal Plaza Dr,"Lodging,Hotels,Motels,Corporate Lodging",Fitchburg,US,42.545856,-71.85278000000001,Courtyard By Marriott,1420,MA
1400 Roebuck Dr,Hotels,Meridian,US,32.350392,-88.691659,La Quinta Inn and Suites Meridian,39301,Meeham
5400 E Williams Cir,Hotels,Tucson,US,32.220226000000004,-110.8769,Residence Inn By Marriott Tucson Williams Centre,85711,AZ
615 Clark Rd,"Corporate Lodging,Hotels,Lodging,Hotel",Rockford,US,42.273094,-88.96704,Hampton Inn Rockford,61107,IL
3243 S Ridge Dr S W,"Hotels,Hotel",Cedar Rapids,US,41.946156,-91.67239000000001,Red Roof Inn Cedar Rapids,52404-5426,IA
1100 Lewis River Rd,"Hotels,Lodging,Hotel,Bed & Breakfast & Inns,Motels",Woodland,US,45.907059999999994,-122.74028999999999,Lewis River Inn,98674,WA
3080 E Colby St,Hotels,Whitehall,US,43.408970000000004,-86.31742,Americas Best Value Inn,49461,MI
781 Freedom Blvd,"Travel & Transport,California (ca),Watsonville Hotels,Hotels,Hotels & Motels,Lodging,Hotel,Watsonville,travel,Motels",Watsonville,US,36.91657,-121.76056000000001,Americas Best Value Inn,95076,La Selva Beach
5400 San Antonio Ave,"Hotel,Hotels",Albuquerque,US,35.159203000000005,-106.58501399999999,Homewood Suites By Hilton Albuquerque - Journal Center,87109,NM
28709 Los Angeles Ave,"Hotel,Hotels",Wellton,US,32.673,-114.14621000000001,Desert Motel Restaurant,85356,AZ
2300 Dulles Corner Blvd,Hotels,Herndon,US,,,Hyatt Dulles,20171,VA
18 Bath St,Hotels,Santa Barbara,US,34.409581,-119.69338700000002,Casa Del Mar Inn Bandb,93101,CA
460 Waterbury Ct,Hotels,Columbus,US,40.00747,-82.865154,Holiday Inn Express and Suites Gahanna/columbus Airport E,43230,OH
1209 S Haynes Ave,Hotels,Miles City,US,46.39733,-105.82263,Econo Lodge Miles City,59301,MT
Veitshoechheimer Str 5b,Hotels,Gresham,US,49.802514,9.921491,Ibis Wuerzburg City,97080,OR
2951 Touhy Ave,"Travel & Transport,Hotels,Accommodations & Lodging,Hotels & Motels,Lodging,Bed & Breakfast & Inns,Motels",Elk Grove Village,US,42.007953,-87.936614,Super 8 Chicago O'hare Airport,60007,IL
W 10170 Highway 54 E,Hotels,Black River Falls,US,44.29782,-90.82021,Comfort Inn and Suites,54615,WI
5256 Us 130,"Hotel,Hotels",Bordentown,US,40.118973,-74.751976,Pine Motel,8505,NJ
3933 Pacific Ave,"Travel and Tourism,Hotels,Hotel",Forest Grove,US,45.52078,-123.07751999999999,Best Western University Inn & Suites,97116,OR
Blvd Villas De Irapuato 1362,Hotels,Mobile,US,20.683032,-101.38082800000001,City Express Irapuato,36670,AL
61 Lake Point Dr,"Hotel,Hotels",Russellville,US,35.32157,-93.2118,The Lake Point Conference Center,72802,AR
14355 S Highway 31 Exit 432,"Hotel,Hotels",Gretna,US,41.097218,-96.253174,Super 8 Gretna,68028,NE
Captains Bay Rd,"Hotels,Lodging",Dutch Harbor,US,53.854797,-166.55903999999998,Royal Dutch Inn,99692,AK
417 Main St,"Motels,Hotels,Lodging,Travel & Leisure",Ogunquit,US,43.25568,-70.59961,Sea View Motel,3907,ME
75 5888 Alii Dr,Hotels,Kailua Kona,US,19.629903,-155.988787,Castle Kona Reef,96740,HI
2020 N Federal Blvd,"Hotels,Family-Friendly Hotels,Budget Hotels,Hotels & Motels,Business Hotels",Riverton,US,43.045320000000004,-108.38065,Comfort Inn and Suites,82501,Midval
31530 State Route 20,Hotels,Oak Harbor,US,48.288952,-122.65784199999999,Acorn Motor Inn,98277,WA
425 Ocean Dr,Hotels,Miami Beach,US,25.77385,-80.132075,The Savoy Hotel,33139,Venetian Islands
560 Peavine Rd,"Wedding Sites,Hotels,Hotels & Motels,Meeting Facilities",Crossville,US,35.96427,-84.98142,Holiday Inn Express & Suites Crossville,38571,TN
9750 Key Point Ave,Hotels,Hesperia,US,34.42794,-117.38383,Holiday Inn Express Hotel and Suites Hesperia,92345,CA
2 Boulevard Pierre Desgranges,Hotels,Park City,US,45.531554,4.278685,Best Western Saint-etienne Aeroport,42160,KY
15494 Palmdale Rd,"Hotel,Hotels",Victorville,US,34.507220000000004,-117.32561000000001,Holiday Inn Victorville,92392,CA
1705 S State St,Hotels,Big Rapids,US,43.68033,-85.48333000000001,Quality Inn and Suites Big Rapids,49307,MI
71 Rathe Rd,"Hotels,Lodging,Hotel",Colchester,US,44.514070000000004,-73.18283000000001,Residence Inn Burlington Colchester,5446,Smc
Calo Des Corral S/n,Hotels,Ridgefield Park,US,39.377520000000004,3.2372900000000002,Inturotel Esmeralda Park,7660,NJ
306 S Alister St,"Hotels & Motels,Hotel & Motel Reservations,travel,hotels,operation",Port Aransas,US,27.831008,-97.064581,America's Best Value Inn,78373-4111,TX
1374 Munras Ave,"Accommodation Reservations,Hotel & Motel Reservations,Hotels,Accommodations & Lodging,Motels",Monterey,US,36.584326000000004,-121.901394,Knights Inn Carmel Hill,93940,Presidio Of Monterey
1006 S Lincoln St,"Hotels,Bed & Breakfasts,Spa Resorts,Hotels & Motels",Port Angeles,US,48.110366,-123.43936799999999,Five Seasuns Bed & Breakfast Inn,98362,Fairholm
50 Big Sky Resort Rd,Hotels,Big Sky,US,45.28646,-111.3932,Summit At Big Sky,59716,MT
250 Msgr O'brien Hwy,"Hotels,hotel",Cambridge,US,42.373389,-71.081492,Holiday Inn Express Hotel and Suites Cambridge,2141,MA
105 2nd St,"Hotels,Motels,Lodging",Rehoboth Beach,US,38.71738,-75.082115,Breakers Hotel,19971,Rehoboth
1350 W Atlantic St,"Wedding Sites,Hotels,Hotels & Motels,Meeting Facilities",Emporia,US,36.70669,-77.55991,Holiday Inn Express Hotel & Suites Emporia,23847,VA
2043 Main St,"Hotels,Lodging,Hotel,Motels",Junction,US,30.493540000000003,-99.77821999999999,Lazy T Motel,76849,TX
964 D Ave,Hotels,Coronado,US,32.686698,-117.18091299999999,Cherokee Lodge Bed and Breakfast,92118,CA
16702 S Highway 1,"Bed & Breakfast & Inns,Hotels",Bodega Bay,US,,,Sonoma Coast Villa Spa,94923,CA
1520 Candelaria Rd N E,"Motels,Hotels,Bed & Breakfast & Inns,Lodging",Albuquerque,US,35.114822,-106.62761,Ambassador Inn Albuquerque,87107,Los Ranchos De Albuquerque
9435 Highway 49,Hotels,Gulfport,US,30.42519,-89.09263,Quality Inn Gulfport,39503,Orange Grove
1154 Hurffville Rd,Hotels,West Deptford,US,39.834559999999996,-75.08841,Residence Inn By Marriott Deptford,8096,Woodbury
736 Idaho St,Hotels & Motels,Elko,US,40.83441,-115.760897,Rodeway Inn,89801,North Fork
100 Paterson Plank Rd,Hotels,Carlstadt,US,40.832467,-74.08601,Holiday Inn Express Hotel and Suites Meadowlands Area,7072,NJ
2120 S Ashland Ave,"Motels,Hotels,Lodging,Bed & Breakfast & Inns",Green Bay,US,44.490314,-88.048805,Sky-lit Motel,54304,WI
1088 Powdermill Rd,"Cabins,Resorts & Vacation Cottages,Wedding Chapels,Vacation Home Rental,Hotels,Bowling Alleys,Hotels & Motels,Hotel,Cabin Cottage & Chalet Rental,Resorts,Real Estate Developers,Home Builders,Resortresort_hotel",Gatlinburg,US,35.754868,-83.457295,Elk Springs Resort,37738,TN
